{
  "type": "FeatureCollection",
  "features": [
    {
      "type": "Feature",
      "geometry": {
        "type": "LineString",
        "coordinates": [
          [18.5200, 50.1100],
          [18.5350, 50.1150],
          [18.5500, 50.1200]
        ]
      },
      "properties": {
        "source_id": "way/301001",
        "element": "way",
        "id": 301001,
        "waterway": "river",
        "name": "Rzeka Ruda",
        "operator": "Państwowe Gospodarstwo Wodne Wody Polskie"
      }
    },
    {
      "type": "Feature",
      "geometry": {
        "type": "LineString",
        "coordinates": [
          [18.5300, 50.0950],
          [18.5450, 50.1000]
        ]
      },
      "properties": {
        "source_id": "way/301002",
        "element": "way",
        "id": 301002,
        "pipeline": "water",
        "substance": "water",
        "diameter": "500",
        "name": "Magistrala Wodociągowa Rybnik",
        "operator": "PWiK Rybnik"
      }
    },
    {
      "type": "Feature",
      "geometry": {
        "type": "Point",
        "coordinates": [18.5250, 50.1050]
      },
      "properties": {
        "source_id": "node/401001",
        "element": "node",
        "id": 401001,
        "man_made": "water_works",
        "name": "Stacja Uzdatniania Wody Gzel",
        "operator": "PWiK Rybnik"
      }
    }
  ]
}
