{
  "type": "FeatureCollection",
  "metadata": {
    "cache_layout_version": "provider_cache/v1",
    "geojson_contract_version": "provider_geojson/v1",
    "aoi_id": "rybnik_35km",
    "domain": "transport",
    "layer_id": "transport.aviation",
    "source": "OpenStreetMap",
    "source_type": "analytical_vector",
    "source_registry_id": "openstreetmap",
    "source_url": "https://overpass-api.de/api/interpreter",
    "source_query": "Bounded Overpass snapshot: explicit transport highway, railway and aeroway tags within the Rybnik 35 km AOI.",
    "snapshot_at": "2026-08-03T21:00:00Z",
    "pipeline_version": "geo_pipeline/transport/v1",
    "query_version": "transport-osm/v4",
    "validation_status_raw": "warning",
    "quality_status": "warning",
    "confidence": "medium",
    "limitations": [
      "OSM transport mapping completeness and classification vary by area, operator and transport mode.",
      "The bounded committed snapshot is fixture evidence for major transport infrastructure and not a statement of operational capacity or real-time schedule.",
      "BDOT10k road and railway geometry is retained only as topographic comparison context and cannot establish transport service semantics alone.",
      "No qualified PRG transport network or facility class is enabled for this domain pack."
    ],
    "eligible_for_analysis": true,
    "readiness": "usable_with_limitations",
    "contract_version": "provider_geojson/v1",
    "feature_count": 26
  },
  "features": [
    {
      "type": "Feature",
      "properties": {
        "source": "OpenStreetMap",
        "source_id": "node/4417769477",
        "domain": "transport",
        "asset_type": "aviation",
        "confidence": "medium",
        "missing_fields": [],
        "limitations": [
          "OSM transport mapping completeness and classification vary by area, operator and transport mode.",
          "The bounded committed snapshot is fixture evidence for major transport infrastructure and not a statement of operational capacity or real-time schedule.",
          "BDOT10k road and railway geometry is retained only as topographic comparison context and cannot establish transport service semantics alone.",
          "No qualified PRG transport network or facility class is enabled for this domain pack."
        ],
        "eligible_for_analysis": true,
        "osm_tags": {
          "name": "Letiště Hať u Hlučína",
          "phone": "+420 776 264 419",
          "aeroway": "aerodrome"
        }
      },
      "geometry": {
        "type": "Point",
        "coordinates": [
          18.2646297,
          49.9499705
        ]
      }
    },
    {
      "type": "Feature",
      "properties": {
        "source": "OpenStreetMap",
        "source_id": "way/34393123",
        "domain": "transport",
        "asset_type": "aviation",
        "confidence": "medium",
        "missing_fields": [],
        "limitations": [
          "OSM transport mapping completeness and classification vary by area, operator and transport mode.",
          "The bounded committed snapshot is fixture evidence for major transport infrastructure and not a statement of operational capacity or real-time schedule.",
          "BDOT10k road and railway geometry is retained only as topographic comparison context and cannot establish transport service semantics alone.",
          "No qualified PRG transport network or facility class is enabled for this domain pack."
        ],
        "eligible_for_analysis": true,
        "osm_tags": {
          "name": "Lotnisko Aeroklubu ROW",
          "wikidata": "Q11762749",
          "wikipedia": "pl:Lotnisko Rybnik-Gotartowice",
          "website": "https://aeroklub.rybnik.pl/",
          "alt_name": "Rybnik-Gotarowice",
          "phone": "+48324218189",
          "email": "biuro@aeroklub.rybnik.pl",
          "aeroway": "aerodrome",
          "icao": "EPRG"
        }
      },
      "geometry": {
        "type": "LineString",
        "coordinates": [
          [
            18.6344751,
            50.0717161
          ],
          [
            18.6324469,
            50.0721722
          ],
          [
            18.6300427,
            50.0731398
          ],
          [
            18.6272236,
            50.07419289999999
          ],
          [
            18.6271556,
            50.0741172
          ],
          [
            18.6263384,
            50.0732082
          ],
          [
            18.6250885,
            50.0726091
          ],
          [
            18.6240103,
            50.072106500000004
          ],
          [
            18.6232539,
            50.0716761
          ],
          [
            18.6222795,
            50.07087800000001
          ],
          [
            18.6277162,
            50.06884119999999
          ],
          [
            18.6292914,
            50.0683276
          ],
          [
            18.6307835,
            50.06806689999999
          ],
          [
            18.631932,
            50.0685707
          ],
          [
            18.6331498,
            50.06916
          ],
          [
            18.6344751,
            50.0717161
          ]
        ]
      }
    },
    {
      "type": "Feature",
      "properties": {
        "source": "OpenStreetMap",
        "source_id": "way/139249428",
        "domain": "transport",
        "asset_type": "aviation",
        "confidence": "medium",
        "missing_fields": [],
        "limitations": [
          "OSM transport mapping completeness and classification vary by area, operator and transport mode.",
          "The bounded committed snapshot is fixture evidence for major transport infrastructure and not a statement of operational capacity or real-time schedule.",
          "BDOT10k road and railway geometry is retained only as topographic comparison context and cannot establish transport service semantics alone.",
          "No qualified PRG transport network or facility class is enabled for this domain pack."
        ],
        "eligible_for_analysis": true,
        "osm_tags": {
          "name": "Lądowisko dla LPR",
          "ref": "H307",
          "opening_hours": "24/7",
          "aeroway": "helipad",
          "surface": "asphalt",
          "access": "private"
        }
      },
      "geometry": {
        "type": "LineString",
        "coordinates": [
          [
            18.5180507,
            50.11197849999999
          ],
          [
            18.518037500000002,
            50.11206599999999
          ],
          [
            18.5180335,
            50.11210830000001
          ],
          [
            18.5180114,
            50.11223979999999
          ],
          [
            18.517603500000003,
            50.1122098
          ],
          [
            18.5176533,
            50.1119536
          ],
          [
            18.5180507,
            50.11197849999999
          ]
        ]
      }
    },
    {
      "type": "Feature",
      "properties": {
        "source": "OpenStreetMap",
        "source_id": "way/152445516",
        "domain": "transport",
        "asset_type": "aviation",
        "confidence": "medium",
        "missing_fields": [],
        "limitations": [
          "OSM transport mapping completeness and classification vary by area, operator and transport mode.",
          "The bounded committed snapshot is fixture evidence for major transport infrastructure and not a statement of operational capacity or real-time schedule.",
          "BDOT10k road and railway geometry is retained only as topographic comparison context and cannot establish transport service semantics alone.",
          "No qualified PRG transport network or facility class is enabled for this domain pack."
        ],
        "eligible_for_analysis": true,
        "osm_tags": {
          "name": "H255",
          "opening_hours": "sunrise-sunset",
          "aeroway": "helipad",
          "surface": "asphalt",
          "access": "permissive"
        }
      },
      "geometry": {
        "type": "LineString",
        "coordinates": [
          [
            18.5850103,
            49.9450291
          ],
          [
            18.5854634,
            49.944754999999994
          ],
          [
            18.5850288,
            49.944457500000006
          ],
          [
            18.5845757,
            49.944731700000006
          ],
          [
            18.5848155,
            49.9448958
          ],
          [
            18.5850103,
            49.9450291
          ]
        ]
      }
    },
    {
      "type": "Feature",
      "properties": {
        "source": "OpenStreetMap",
        "source_id": "way/164366352",
        "domain": "transport",
        "asset_type": "aviation",
        "confidence": "medium",
        "missing_fields": [],
        "limitations": [
          "OSM transport mapping completeness and classification vary by area, operator and transport mode.",
          "The bounded committed snapshot is fixture evidence for major transport infrastructure and not a statement of operational capacity or real-time schedule.",
          "BDOT10k road and railway geometry is retained only as topographic comparison context and cannot establish transport service semantics alone.",
          "No qualified PRG transport network or facility class is enabled for this domain pack."
        ],
        "eligible_for_analysis": true,
        "osm_tags": {
          "name": "Letiště Orlová",
          "aeroway": "aerodrome"
        }
      },
      "geometry": {
        "type": "LineString",
        "coordinates": [
          [
            18.4341353,
            49.85636310000001
          ],
          [
            18.4338524,
            49.8562493
          ],
          [
            18.433555000000002,
            49.8558976
          ],
          [
            18.4357828,
            49.854534699999995
          ],
          [
            18.4350335,
            49.8539883
          ],
          [
            18.4355449,
            49.85370239999999
          ],
          [
            18.4363,
            49.8542611
          ],
          [
            18.4368654,
            49.8546794
          ],
          [
            18.4341353,
            49.85636310000001
          ]
        ]
      }
    },
    {
      "type": "Feature",
      "properties": {
        "source": "OpenStreetMap",
        "source_id": "way/201294992",
        "domain": "transport",
        "asset_type": "aviation",
        "confidence": "medium",
        "missing_fields": [],
        "limitations": [
          "OSM transport mapping completeness and classification vary by area, operator and transport mode.",
          "The bounded committed snapshot is fixture evidence for major transport infrastructure and not a statement of operational capacity or real-time schedule.",
          "BDOT10k road and railway geometry is retained only as topographic comparison context and cannot establish transport service semantics alone.",
          "No qualified PRG transport network or facility class is enabled for this domain pack."
        ],
        "eligible_for_analysis": true,
        "osm_tags": {
          "aeroway": "helipad",
          "access": "permissive"
        }
      },
      "geometry": {
        "type": "LineString",
        "coordinates": [
          [
            18.7244609,
            50.308771799999995
          ],
          [
            18.7250323,
            50.308507
          ],
          [
            18.724622,
            50.3081438
          ],
          [
            18.7240505,
            50.3084086
          ],
          [
            18.7242154,
            50.30855459999999
          ],
          [
            18.7242557,
            50.30859019999999
          ],
          [
            18.7242946,
            50.3086247
          ],
          [
            18.7244609,
            50.308771799999995
          ]
        ]
      }
    },
    {
      "type": "Feature",
      "properties": {
        "source": "OpenStreetMap",
        "source_id": "way/202172217",
        "domain": "transport",
        "asset_type": "aviation",
        "confidence": "medium",
        "missing_fields": [],
        "limitations": [
          "OSM transport mapping completeness and classification vary by area, operator and transport mode.",
          "The bounded committed snapshot is fixture evidence for major transport infrastructure and not a statement of operational capacity or real-time schedule.",
          "BDOT10k road and railway geometry is retained only as topographic comparison context and cannot establish transport service semantics alone.",
          "No qualified PRG transport network or facility class is enabled for this domain pack."
        ],
        "eligible_for_analysis": true,
        "osm_tags": {
          "name": "Lądowisko dla LPR",
          "ref": "H306",
          "opening_hours": "24/7",
          "aeroway": "helipad",
          "surface": "asphalt",
          "access": "private"
        }
      },
      "geometry": {
        "type": "LineString",
        "coordinates": [
          [
            18.2021848,
            50.100807599999996
          ],
          [
            18.2020187,
            50.10088029999999
          ],
          [
            18.2020749,
            50.1009332
          ],
          [
            18.2020839,
            50.100941699999986
          ],
          [
            18.2021214,
            50.1009769
          ],
          [
            18.2021313,
            50.100986199999994
          ],
          [
            18.2022975,
            50.1009136
          ],
          [
            18.2021848,
            50.100807599999996
          ]
        ]
      }
    },
    {
      "type": "Feature",
      "properties": {
        "source": "OpenStreetMap",
        "source_id": "way/210311851",
        "domain": "transport",
        "asset_type": "aviation",
        "confidence": "medium",
        "missing_fields": [],
        "limitations": [
          "OSM transport mapping completeness and classification vary by area, operator and transport mode.",
          "The bounded committed snapshot is fixture evidence for major transport infrastructure and not a statement of operational capacity or real-time schedule.",
          "BDOT10k road and railway geometry is retained only as topographic comparison context and cannot establish transport service semantics alone.",
          "No qualified PRG transport network or facility class is enabled for this domain pack."
        ],
        "eligible_for_analysis": true,
        "osm_tags": {
          "aeroway": "helipad",
          "surface": "concrete"
        }
      },
      "geometry": {
        "type": "LineString",
        "coordinates": [
          [
            18.627076,
            50.07369599999999
          ],
          [
            18.6271116,
            50.073770700000004
          ],
          [
            18.6271846,
            50.07383319999999
          ],
          [
            18.6272758,
            50.0738731
          ],
          [
            18.6273818,
            50.073893
          ],
          [
            18.6274922,
            50.073890899999995
          ],
          [
            18.6275962,
            50.0738671
          ],
          [
            18.6276836,
            50.07382390000001
          ],
          [
            18.627746,
            50.07376539999999
          ],
          [
            18.6277773,
            50.0736974
          ],
          [
            18.6277744,
            50.07362659999999
          ],
          [
            18.6277375,
            50.0735598
          ],
          [
            18.627662,
            50.07349860000001
          ],
          [
            18.6275585,
            50.07345739999999
          ],
          [
            18.6274394,
            50.0734412
          ],
          [
            18.6273189,
            50.073451899999995
          ],
          [
            18.6272111,
            50.0734882
          ],
          [
            18.6271289,
            50.073545900000006
          ],
          [
            18.627082000000005,
            50.073617899999995
          ],
          [
            18.627076,
            50.07369599999999
          ]
        ]
      }
    },
    {
      "type": "Feature",
      "properties": {
        "source": "OpenStreetMap",
        "source_id": "way/231907316",
        "domain": "transport",
        "asset_type": "aviation",
        "confidence": "medium",
        "missing_fields": [],
        "limitations": [
          "OSM transport mapping completeness and classification vary by area, operator and transport mode.",
          "The bounded committed snapshot is fixture evidence for major transport infrastructure and not a statement of operational capacity or real-time schedule.",
          "BDOT10k road and railway geometry is retained only as topographic comparison context and cannot establish transport service semantics alone.",
          "No qualified PRG transport network or facility class is enabled for this domain pack."
        ],
        "eligible_for_analysis": true,
        "osm_tags": {
          "aeroway": "helipad"
        }
      },
      "geometry": {
        "type": "LineString",
        "coordinates": [
          [
            18.4358722,
            49.8752432
          ],
          [
            18.4358992,
            49.8752502
          ],
          [
            18.4360256,
            49.8752827
          ],
          [
            18.4360796,
            49.87519549999999
          ],
          [
            18.4359262,
            49.87515609999999
          ],
          [
            18.4358722,
            49.8752432
          ]
        ]
      }
    },
    {
      "type": "Feature",
      "properties": {
        "source": "OpenStreetMap",
        "source_id": "way/393603423",
        "domain": "transport",
        "asset_type": "aviation",
        "confidence": "medium",
        "missing_fields": [],
        "limitations": [
          "OSM transport mapping completeness and classification vary by area, operator and transport mode.",
          "The bounded committed snapshot is fixture evidence for major transport infrastructure and not a statement of operational capacity or real-time schedule.",
          "BDOT10k road and railway geometry is retained only as topographic comparison context and cannot establish transport service semantics alone.",
          "No qualified PRG transport network or facility class is enabled for this domain pack."
        ],
        "eligible_for_analysis": true,
        "osm_tags": {
          "aeroway": "helipad"
        }
      },
      "geometry": {
        "type": "LineString",
        "coordinates": [
          [
            18.9512116,
            50.2224812
          ],
          [
            18.9515726,
            50.222469799999985
          ],
          [
            18.9515868,
            50.22269729999999
          ],
          [
            18.9513671,
            50.2227051
          ],
          [
            18.951364500000004,
            50.222710899999996
          ],
          [
            18.9513629,
            50.2227213
          ],
          [
            18.951364300000005,
            50.222729400000006
          ],
          [
            18.9513668,
            50.22273620000001
          ],
          [
            18.9513344,
            50.2227373
          ],
          [
            18.9513051,
            50.2227382
          ],
          [
            18.9513024,
            50.2227081
          ],
          [
            18.9512333,
            50.2227114
          ],
          [
            18.9512265,
            50.2226401
          ],
          [
            18.9512256,
            50.2226228
          ],
          [
            18.9511292,
            50.222624999999994
          ],
          [
            18.9511251,
            50.22257149999999
          ],
          [
            18.9512211,
            50.222569
          ],
          [
            18.9512116,
            50.2224812
          ]
        ]
      }
    },
    {
      "type": "Feature",
      "properties": {
        "source": "OpenStreetMap",
        "source_id": "way/440510830",
        "domain": "transport",
        "asset_type": "aviation",
        "confidence": "medium",
        "missing_fields": [],
        "limitations": [
          "OSM transport mapping completeness and classification vary by area, operator and transport mode.",
          "The bounded committed snapshot is fixture evidence for major transport infrastructure and not a statement of operational capacity or real-time schedule.",
          "BDOT10k road and railway geometry is retained only as topographic comparison context and cannot establish transport service semantics alone.",
          "No qualified PRG transport network or facility class is enabled for this domain pack."
        ],
        "eligible_for_analysis": true,
        "osm_tags": {
          "name": "Goczałkowice",
          "aeroway": "aerodrome"
        }
      },
      "geometry": {
        "type": "LineString",
        "coordinates": [
          [
            18.9378181,
            49.95197829999999
          ],
          [
            18.9380157,
            49.9514898
          ],
          [
            18.9451924,
            49.9526677
          ],
          [
            18.9450971,
            49.952846199999996
          ],
          [
            18.9459881,
            49.952993
          ],
          [
            18.9459154,
            49.9531257
          ],
          [
            18.9450186,
            49.9529934
          ],
          [
            18.9448836,
            49.953246400000005
          ],
          [
            18.9436829,
            49.95305669999999
          ],
          [
            18.9385982,
            49.9522228
          ],
          [
            18.9385752,
            49.952030099999995
          ],
          [
            18.9381137,
            49.9520253
          ],
          [
            18.9378181,
            49.95197829999999
          ]
        ]
      }
    },
    {
      "type": "Feature",
      "properties": {
        "source": "OpenStreetMap",
        "source_id": "way/498387295",
        "domain": "transport",
        "asset_type": "aviation",
        "confidence": "medium",
        "missing_fields": [],
        "limitations": [
          "OSM transport mapping completeness and classification vary by area, operator and transport mode.",
          "The bounded committed snapshot is fixture evidence for major transport infrastructure and not a statement of operational capacity or real-time schedule.",
          "BDOT10k road and railway geometry is retained only as topographic comparison context and cannot establish transport service semantics alone.",
          "No qualified PRG transport network or facility class is enabled for this domain pack."
        ],
        "eligible_for_analysis": true,
        "osm_tags": {
          "aeroway": "helipad"
        }
      },
      "geometry": {
        "type": "LineString",
        "coordinates": [
          [
            18.9400129,
            49.9737544
          ],
          [
            18.9402493,
            49.9738125
          ],
          [
            18.9403414,
            49.9736575
          ],
          [
            18.940105,
            49.9735994
          ],
          [
            18.9400129,
            49.9737544
          ]
        ]
      }
    },
    {
      "type": "Feature",
      "properties": {
        "source": "OpenStreetMap",
        "source_id": "way/911551363",
        "domain": "transport",
        "asset_type": "aviation",
        "confidence": "medium",
        "missing_fields": [],
        "limitations": [
          "OSM transport mapping completeness and classification vary by area, operator and transport mode.",
          "The bounded committed snapshot is fixture evidence for major transport infrastructure and not a statement of operational capacity or real-time schedule.",
          "BDOT10k road and railway geometry is retained only as topographic comparison context and cannot establish transport service semantics alone.",
          "No qualified PRG transport network or facility class is enabled for this domain pack."
        ],
        "eligible_for_analysis": true,
        "osm_tags": {
          "aeroway": "helipad",
          "icao": "EPPY",
          "access": "private"
        }
      },
      "geometry": {
        "type": "LineString",
        "coordinates": [
          [
            18.961977,
            50.00667899999999
          ],
          [
            18.9623184,
            50.006679299999995
          ],
          [
            18.962278,
            50.006464199999996
          ],
          [
            18.9619772,
            50.00648230000001
          ],
          [
            18.961977,
            50.00667899999999
          ]
        ]
      }
    },
    {
      "type": "Feature",
      "properties": {
        "source": "OpenStreetMap",
        "source_id": "way/1221776520",
        "domain": "transport",
        "asset_type": "aviation",
        "confidence": "medium",
        "missing_fields": [],
        "limitations": [
          "OSM transport mapping completeness and classification vary by area, operator and transport mode.",
          "The bounded committed snapshot is fixture evidence for major transport infrastructure and not a statement of operational capacity or real-time schedule.",
          "BDOT10k road and railway geometry is retained only as topographic comparison context and cannot establish transport service semantics alone.",
          "No qualified PRG transport network or facility class is enabled for this domain pack."
        ],
        "eligible_for_analysis": true,
        "osm_tags": {
          "aeroway": "helipad"
        }
      },
      "geometry": {
        "type": "LineString",
        "coordinates": [
          [
            18.9988399,
            50.2107536
          ],
          [
            18.9989357,
            50.210475599999995
          ],
          [
            18.9993429,
            50.210536499999996
          ],
          [
            18.9992432,
            50.21081420000001
          ],
          [
            18.9988399,
            50.2107536
          ]
        ]
      }
    },
    {
      "type": "Feature",
      "properties": {
        "source": "OpenStreetMap",
        "source_id": "way/1221864728",
        "domain": "transport",
        "asset_type": "aviation",
        "confidence": "medium",
        "missing_fields": [],
        "limitations": [
          "OSM transport mapping completeness and classification vary by area, operator and transport mode.",
          "The bounded committed snapshot is fixture evidence for major transport infrastructure and not a statement of operational capacity or real-time schedule.",
          "BDOT10k road and railway geometry is retained only as topographic comparison context and cannot establish transport service semantics alone.",
          "No qualified PRG transport network or facility class is enabled for this domain pack."
        ],
        "eligible_for_analysis": true,
        "osm_tags": {
          "aeroway": "helipad"
        }
      },
      "geometry": {
        "type": "LineString",
        "coordinates": [
          [
            18.3244769,
            49.8643838
          ],
          [
            18.3246681,
            49.86444000000001
          ],
          [
            18.3247547,
            49.864317699999994
          ],
          [
            18.3245634,
            49.864261500000005
          ],
          [
            18.3244769,
            49.8643838
          ]
        ]
      }
    },
    {
      "type": "Feature",
      "properties": {
        "source": "OpenStreetMap",
        "source_id": "way/1221864785",
        "domain": "transport",
        "asset_type": "aviation",
        "confidence": "medium",
        "missing_fields": [],
        "limitations": [
          "OSM transport mapping completeness and classification vary by area, operator and transport mode.",
          "The bounded committed snapshot is fixture evidence for major transport infrastructure and not a statement of operational capacity or real-time schedule.",
          "BDOT10k road and railway geometry is retained only as topographic comparison context and cannot establish transport service semantics alone.",
          "No qualified PRG transport network or facility class is enabled for this domain pack."
        ],
        "eligible_for_analysis": true,
        "osm_tags": {
          "name": "Orlová - Důl LAZY",
          "aeroway": "helipad"
        }
      },
      "geometry": {
        "type": "LineString",
        "coordinates": [
          [
            18.4459254,
            49.8271889
          ],
          [
            18.4459018,
            49.827283599999994
          ],
          [
            18.4460235,
            49.82729630000001
          ],
          [
            18.4460471,
            49.8272016
          ],
          [
            18.4459254,
            49.8271889
          ]
        ]
      }
    },
    {
      "type": "Feature",
      "properties": {
        "source": "OpenStreetMap",
        "source_id": "way/1223406147",
        "domain": "transport",
        "asset_type": "aviation",
        "confidence": "medium",
        "missing_fields": [],
        "limitations": [
          "OSM transport mapping completeness and classification vary by area, operator and transport mode.",
          "The bounded committed snapshot is fixture evidence for major transport infrastructure and not a statement of operational capacity or real-time schedule.",
          "BDOT10k road and railway geometry is retained only as topographic comparison context and cannot establish transport service semantics alone.",
          "No qualified PRG transport network or facility class is enabled for this domain pack."
        ],
        "eligible_for_analysis": true,
        "osm_tags": {
          "name": "Stonava - Důl ČSM - Jih",
          "aeroway": "helipad"
        }
      },
      "geometry": {
        "type": "LineString",
        "coordinates": [
          [
            18.5536445,
            49.802612799999984
          ],
          [
            18.5538265,
            49.80258100000001
          ],
          [
            18.5538785,
            49.80270490000001
          ],
          [
            18.5536965,
            49.802736700000004
          ],
          [
            18.5536445,
            49.802612799999984
          ]
        ]
      }
    },
    {
      "type": "Feature",
      "properties": {
        "source": "OpenStreetMap",
        "source_id": "way/1223406202",
        "domain": "transport",
        "asset_type": "aviation",
        "confidence": "medium",
        "missing_fields": [],
        "limitations": [
          "OSM transport mapping completeness and classification vary by area, operator and transport mode.",
          "The bounded committed snapshot is fixture evidence for major transport infrastructure and not a statement of operational capacity or real-time schedule.",
          "BDOT10k road and railway geometry is retained only as topographic comparison context and cannot establish transport service semantics alone.",
          "No qualified PRG transport network or facility class is enabled for this domain pack."
        ],
        "eligible_for_analysis": true,
        "osm_tags": {
          "name": "Stonava - Důl ČSM - Sever",
          "aeroway": "helipad"
        }
      },
      "geometry": {
        "type": "LineString",
        "coordinates": [
          [
            18.5468479,
            49.81658399999999
          ],
          [
            18.5468762,
            49.816596999999994
          ],
          [
            18.546909,
            49.81660449999998
          ],
          [
            18.5469436,
            49.8166062
          ],
          [
            18.546977700000003,
            49.8166018
          ],
          [
            18.5470087,
            49.816591599999995
          ],
          [
            18.5470344,
            49.816576399999995
          ],
          [
            18.5470528,
            49.8165574
          ],
          [
            18.5470626,
            49.81653589999999
          ],
          [
            18.547063,
            49.81651339999999
          ],
          [
            18.5470542,
            49.81649169999999
          ],
          [
            18.5470366,
            49.81647239999999
          ],
          [
            18.5470117,
            49.81645669999999
          ],
          [
            18.5469811,
            49.816445999999985
          ],
          [
            18.5469568,
            49.8164418
          ],
          [
            18.5469317,
            49.8164407
          ],
          [
            18.5469067,
            49.8164427
          ],
          [
            18.5468828,
            49.81644789999999
          ],
          [
            18.5468609,
            49.81645609999999
          ],
          [
            18.546842,
            49.8164668
          ],
          [
            18.5468266,
            49.8164797
          ],
          [
            18.5468154,
            49.8164942
          ],
          [
            18.5468089,
            49.81650989999999
          ],
          [
            18.5468072,
            49.8165262
          ],
          [
            18.5468105,
            49.816542299999995
          ],
          [
            18.5468186,
            49.816557700000004
          ],
          [
            18.5468312,
            49.8165718
          ],
          [
            18.5468479,
            49.81658399999999
          ]
        ]
      }
    },
    {
      "type": "Feature",
      "properties": {
        "source": "OpenStreetMap",
        "source_id": "way/1223406413",
        "domain": "transport",
        "asset_type": "aviation",
        "confidence": "medium",
        "missing_fields": [],
        "limitations": [
          "OSM transport mapping completeness and classification vary by area, operator and transport mode.",
          "The bounded committed snapshot is fixture evidence for major transport infrastructure and not a statement of operational capacity or real-time schedule.",
          "BDOT10k road and railway geometry is retained only as topographic comparison context and cannot establish transport service semantics alone.",
          "No qualified PRG transport network or facility class is enabled for this domain pack."
        ],
        "eligible_for_analysis": true,
        "osm_tags": {
          "name": "Darkov - Důl",
          "aeroway": "helipad"
        }
      },
      "geometry": {
        "type": "LineString",
        "coordinates": [
          [
            18.5233368,
            49.8289137
          ],
          [
            18.5234349,
            49.8288668
          ],
          [
            18.5233575,
            49.8287994
          ],
          [
            18.5232594,
            49.8288464
          ],
          [
            18.5233368,
            49.8289137
          ]
        ]
      }
    },
    {
      "type": "Feature",
      "properties": {
        "source": "OpenStreetMap",
        "source_id": "way/1223406764",
        "domain": "transport",
        "asset_type": "aviation",
        "confidence": "medium",
        "missing_fields": [],
        "limitations": [
          "OSM transport mapping completeness and classification vary by area, operator and transport mode.",
          "The bounded committed snapshot is fixture evidence for major transport infrastructure and not a statement of operational capacity or real-time schedule.",
          "BDOT10k road and railway geometry is retained only as topographic comparison context and cannot establish transport service semantics alone.",
          "No qualified PRG transport network or facility class is enabled for this domain pack."
        ],
        "eligible_for_analysis": true,
        "osm_tags": {
          "name": "Jindřichův Dvůr - Důl ČSA",
          "aeroway": "helipad"
        }
      },
      "geometry": {
        "type": "LineString",
        "coordinates": [
          [
            18.4969717,
            49.8431705
          ],
          [
            18.4969927,
            49.843177499999996
          ],
          [
            18.4970157,
            49.843180999999994
          ],
          [
            18.4970394,
            49.84318079999999
          ],
          [
            18.4970623,
            49.843177
          ],
          [
            18.4970831,
            49.843169700000004
          ],
          [
            18.4971005,
            49.84315939999999
          ],
          [
            18.4971136,
            49.843146700000005
          ],
          [
            18.4971216,
            49.8431323
          ],
          [
            18.4971239,
            49.8431171
          ],
          [
            18.4971206,
            49.843102
          ],
          [
            18.4971116,
            49.8430879
          ],
          [
            18.4970977,
            49.84307549999999
          ],
          [
            18.4970765,
            49.84306449999999
          ],
          [
            18.4970514,
            49.84305770000002
          ],
          [
            18.497024300000003,
            49.84305559999999
          ],
          [
            18.4969974,
            49.843058499999984
          ],
          [
            18.4969728,
            49.84306599999999
          ],
          [
            18.4969524,
            49.843077599999994
          ],
          [
            18.496937700000004,
            49.8430924
          ],
          [
            18.49693,
            49.8431093
          ],
          [
            18.4969298,
            49.84312680000001
          ],
          [
            18.4969372,
            49.8431438
          ],
          [
            18.4969515,
            49.84315869999999
          ],
          [
            18.4969717,
            49.8431705
          ]
        ]
      }
    },
    {
      "type": "Feature",
      "properties": {
        "source": "OpenStreetMap",
        "source_id": "way/1223407823",
        "domain": "transport",
        "asset_type": "aviation",
        "confidence": "medium",
        "missing_fields": [],
        "limitations": [
          "OSM transport mapping completeness and classification vary by area, operator and transport mode.",
          "The bounded committed snapshot is fixture evidence for major transport infrastructure and not a statement of operational capacity or real-time schedule.",
          "BDOT10k road and railway geometry is retained only as topographic comparison context and cannot establish transport service semantics alone.",
          "No qualified PRG transport network or facility class is enabled for this domain pack."
        ],
        "eligible_for_analysis": true,
        "osm_tags": {
          "name": "Karviná - Nemocnice",
          "aeroway": "helipad"
        }
      },
      "geometry": {
        "type": "LineString",
        "coordinates": [
          [
            18.5502245,
            49.8457433
          ],
          [
            18.5503284,
            49.84580209999999
          ],
          [
            18.5504183,
            49.845736
          ],
          [
            18.5503145,
            49.8456772
          ],
          [
            18.5502245,
            49.8457433
          ]
        ]
      }
    },
    {
      "type": "Feature",
      "properties": {
        "source": "OpenStreetMap",
        "source_id": "way/1223407895",
        "domain": "transport",
        "asset_type": "aviation",
        "confidence": "medium",
        "missing_fields": [],
        "limitations": [
          "OSM transport mapping completeness and classification vary by area, operator and transport mode.",
          "The bounded committed snapshot is fixture evidence for major transport infrastructure and not a statement of operational capacity or real-time schedule.",
          "BDOT10k road and railway geometry is retained only as topographic comparison context and cannot establish transport service semantics alone.",
          "No qualified PRG transport network or facility class is enabled for this domain pack."
        ],
        "eligible_for_analysis": true,
        "osm_tags": {
          "aeroway": "helipad"
        }
      },
      "geometry": {
        "type": "LineString",
        "coordinates": [
          [
            18.5610294,
            49.86820419999999
          ],
          [
            18.5610582,
            49.86814029999999
          ],
          [
            18.5612694,
            49.8681797
          ],
          [
            18.5612407,
            49.8682437
          ],
          [
            18.5610294,
            49.86820419999999
          ]
        ]
      }
    },
    {
      "type": "Feature",
      "properties": {
        "source": "OpenStreetMap",
        "source_id": "way/1223409936",
        "domain": "transport",
        "asset_type": "aviation",
        "confidence": "medium",
        "missing_fields": [],
        "limitations": [
          "OSM transport mapping completeness and classification vary by area, operator and transport mode.",
          "The bounded committed snapshot is fixture evidence for major transport infrastructure and not a statement of operational capacity or real-time schedule.",
          "BDOT10k road and railway geometry is retained only as topographic comparison context and cannot establish transport service semantics alone.",
          "No qualified PRG transport network or facility class is enabled for this domain pack."
        ],
        "eligible_for_analysis": true,
        "osm_tags": {
          "name": "Havířov - Nový svět - Důl Darkov 3",
          "aeroway": "helipad",
          "surface": "asphalt"
        }
      },
      "geometry": {
        "type": "LineString",
        "coordinates": [
          [
            18.5018999,
            49.79895369999999
          ],
          [
            18.5018804,
            49.79894310000001
          ],
          [
            18.5018671,
            49.79892910000001
          ],
          [
            18.5018614,
            49.7989131
          ],
          [
            18.5018623,
            49.7989012
          ],
          [
            18.5018674,
            49.7988899
          ],
          [
            18.501876400000004,
            49.798879599999985
          ],
          [
            18.5018889,
            49.7988709
          ],
          [
            18.5019041,
            49.79886429999999
          ],
          [
            18.5019212,
            49.798860100000006
          ],
          [
            18.5019394,
            49.7988586
          ],
          [
            18.5019576,
            49.798859799999995
          ],
          [
            18.5019749,
            49.7988637
          ],
          [
            18.5019958,
            49.7988731
          ],
          [
            18.5020109,
            49.7988863
          ],
          [
            18.5020188,
            49.79890199999999
          ],
          [
            18.5020185,
            49.798918399999984
          ],
          [
            18.5020102,
            49.7989339
          ],
          [
            18.5019947,
            49.798947000000005
          ],
          [
            18.5019736,
            49.79895619999999
          ],
          [
            18.5019491,
            49.7989606
          ],
          [
            18.5019236,
            49.7989597
          ],
          [
            18.5018999,
            49.79895369999999
          ]
        ]
      }
    },
    {
      "type": "Feature",
      "properties": {
        "source": "OpenStreetMap",
        "source_id": "way/1232261084",
        "domain": "transport",
        "asset_type": "aviation",
        "confidence": "medium",
        "missing_fields": [],
        "limitations": [
          "OSM transport mapping completeness and classification vary by area, operator and transport mode.",
          "The bounded committed snapshot is fixture evidence for major transport infrastructure and not a statement of operational capacity or real-time schedule.",
          "BDOT10k road and railway geometry is retained only as topographic comparison context and cannot establish transport service semantics alone.",
          "No qualified PRG transport network or facility class is enabled for this domain pack."
        ],
        "eligible_for_analysis": true,
        "osm_tags": {
          "aeroway": "helipad"
        }
      },
      "geometry": {
        "type": "LineString",
        "coordinates": [
          [
            18.827463,
            50.3259605
          ],
          [
            18.8275047,
            50.32594009999999
          ],
          [
            18.8275535,
            50.32592770000001
          ],
          [
            18.8276058,
            50.3259242
          ],
          [
            18.8276576,
            50.3259299
          ],
          [
            18.827705,
            50.325944299999996
          ],
          [
            18.8277446,
            50.32596629999999
          ],
          [
            18.8277733,
            50.3259944
          ],
          [
            18.8277885,
            50.3260246
          ],
          [
            18.827791,
            50.32605629999999
          ],
          [
            18.8277808,
            50.32608729999999
          ],
          [
            18.8277584,
            50.326115599999994
          ],
          [
            18.8277254,
            50.3261393
          ],
          [
            18.8276839,
            50.3261568
          ],
          [
            18.8276369,
            50.326167
          ],
          [
            18.827587300000005,
            50.326169
          ],
          [
            18.8275386,
            50.326162899999986
          ],
          [
            18.8274949,
            50.3261495
          ],
          [
            18.8274579,
            50.3261294
          ],
          [
            18.8274299,
            50.3261041
          ],
          [
            18.8274128,
            50.32607509999999
          ],
          [
            18.8274076,
            50.3260443
          ],
          [
            18.8274147,
            50.32601369999998
          ],
          [
            18.8274336,
            50.32598509999999
          ],
          [
            18.827463,
            50.3259605
          ]
        ]
      }
    },
    {
      "type": "Feature",
      "properties": {
        "source": "OpenStreetMap",
        "source_id": "way/1263781441",
        "domain": "transport",
        "asset_type": "aviation",
        "confidence": "medium",
        "missing_fields": [],
        "limitations": [
          "OSM transport mapping completeness and classification vary by area, operator and transport mode.",
          "The bounded committed snapshot is fixture evidence for major transport infrastructure and not a statement of operational capacity or real-time schedule.",
          "BDOT10k road and railway geometry is retained only as topographic comparison context and cannot establish transport service semantics alone.",
          "No qualified PRG transport network or facility class is enabled for this domain pack."
        ],
        "eligible_for_analysis": true,
        "osm_tags": {
          "aeroway": "helipad"
        }
      },
      "geometry": {
        "type": "LineString",
        "coordinates": [
          [
            18.9273331,
            49.9697571
          ],
          [
            18.9272098,
            49.96974529999999
          ],
          [
            18.9272269,
            49.96967010000001
          ],
          [
            18.9273535,
            49.9696808
          ],
          [
            18.9273429,
            49.9697207
          ],
          [
            18.9273331,
            49.9697571
          ]
        ]
      }
    },
    {
      "type": "Feature",
      "properties": {
        "source": "OpenStreetMap",
        "source_id": "way/1316377448",
        "domain": "transport",
        "asset_type": "aviation",
        "confidence": "medium",
        "missing_fields": [],
        "limitations": [
          "OSM transport mapping completeness and classification vary by area, operator and transport mode.",
          "The bounded committed snapshot is fixture evidence for major transport infrastructure and not a statement of operational capacity or real-time schedule.",
          "BDOT10k road and railway geometry is retained only as topographic comparison context and cannot establish transport service semantics alone.",
          "No qualified PRG transport network or facility class is enabled for this domain pack."
        ],
        "eligible_for_analysis": true,
        "osm_tags": {
          "name": "Izoterm Pszczyna",
          "aeroway": "helipad",
          "surface": "paved"
        }
      },
      "geometry": {
        "type": "LineString",
        "coordinates": [
          [
            18.9561605,
            49.9710842
          ],
          [
            18.9561482,
            49.971082800000005
          ],
          [
            18.9561359,
            49.971083899999996
          ],
          [
            18.9561247,
            49.971087499999996
          ],
          [
            18.9561159,
            49.9710932
          ],
          [
            18.956110300000002,
            49.97110039999999
          ],
          [
            18.956108600000004,
            49.97110839999999
          ],
          [
            18.9561109,
            49.9711163
          ],
          [
            18.9561173,
            49.971123600000006
          ],
          [
            18.9561272,
            49.97112909999999
          ],
          [
            18.9561393,
            49.97113219999999
          ],
          [
            18.956152300000003,
            49.971132499999996
          ],
          [
            18.9561648,
            49.97113009999999
          ],
          [
            18.9561753,
            49.971125099999995
          ],
          [
            18.9561827,
            49.9711182
          ],
          [
            18.9561861,
            49.97111009999999
          ],
          [
            18.9561851,
            49.9711017
          ],
          [
            18.9561799,
            49.9710941
          ],
          [
            18.9561715,
            49.97108809999999
          ],
          [
            18.9561605,
            49.9710842
          ]
        ]
      }
    }
  ]
}