{
  "type": "FeatureCollection",
  "metadata": {
    "cache_layout_version": "provider_cache/v1",
    "geojson_contract_version": "provider_geojson/v1",
    "aoi_id": "rybnik_35km",
    "domain": "telecom",
    "layer_id": "telecom.lines",
    "source": "OpenStreetMap",
    "source_type": "analytical_vector",
    "source_registry_id": "openstreetmap",
    "source_url": "https://overpass-api.de/api/interpreter",
    "source_query": "Fixture contract evidence for telecom-osm/v1: explicit communication towers/masts, telecom facilities and communication=line or cable=communication routes.",
    "snapshot_at": "2026-08-10T10:00:00Z",
    "pipeline_version": "geo_pipeline/telecom/v1",
    "query_version": "telecom-osm/v1",
    "validation_status_raw": "warning",
    "quality_status": "warning",
    "confidence": "medium",
    "limitations": [
      "OSM telecom infrastructure and communication-network completeness varies significantly by area and operator.",
      "The committed contract fixture demonstrates explicit telecom categories; it is not a complete Rybnik 35 km network, coverage or transmission model.",
      "Generic masts, towers, poles, buildings, ducts and utilities without qualifying communication tags are excluded to prevent false telecom attribution.",
      "No qualified official analytical telecom-network vector feed is enabled; an empty telecom.lines layer remains an explicit source gap.",
      "KIUT telecom WMS layers are visual reference overlays only and do not replace analytical vector artifacts."
    ],
    "eligible_for_analysis": true,
    "readiness": "usable_with_limitations",
    "contract_version": "provider_geojson/v1",
    "feature_count": 3
  },
  "features": [
    {
      "type": "Feature",
      "properties": {
        "source": "OpenStreetMap",
        "source_id": "way/308738723",
        "domain": "telecom",
        "asset_type": "lines",
        "confidence": "medium",
        "missing_fields": [],
        "limitations": [
          "OSM telecom infrastructure and communication-network completeness varies significantly by area and operator.",
          "The committed contract fixture demonstrates explicit telecom categories; it is not a complete Rybnik 35 km network, coverage or transmission model.",
          "Generic masts, towers, poles, buildings, ducts and utilities without qualifying communication tags are excluded to prevent false telecom attribution.",
          "No qualified official analytical telecom-network vector feed is enabled; an empty telecom.lines layer remains an explicit source gap.",
          "KIUT telecom WMS layers are visual reference overlays only and do not replace analytical vector artifacts."
        ],
        "eligible_for_analysis": true,
        "osm_tags": {
          "power": "line",
          "name": "daw. 110kV Halemba–Wirek I odg. Radoszowy",
          "operator": "Tauron",
          "operator:wikidata": "Q2397198",
          "description": "W 2025 r. ogłoszono przetarg na demontaż odcinka. Zweryfikować jego dalsze istnienie.",
          "voltage": "110000",
          "frequency": "50",
          "circuits": "1",
          "cables": "3",
          "wires": "single"
        }
      },
      "geometry": {
        "type": "LineString",
        "coordinates": [
          [
            18.9044659,
            50.24437829999999
          ],
          [
            18.9068205,
            50.2448482
          ],
          [
            18.9093819,
            50.245336499999986
          ]
        ]
      }
    },
    {
      "type": "Feature",
      "properties": {
        "source": "OpenStreetMap",
        "source_id": "way/935798460",
        "domain": "telecom",
        "asset_type": "lines",
        "confidence": "medium",
        "missing_fields": [],
        "limitations": [
          "OSM telecom infrastructure and communication-network completeness varies significantly by area and operator.",
          "The committed contract fixture demonstrates explicit telecom categories; it is not a complete Rybnik 35 km network, coverage or transmission model.",
          "Generic masts, towers, poles, buildings, ducts and utilities without qualifying communication tags are excluded to prevent false telecom attribution.",
          "No qualified official analytical telecom-network vector feed is enabled; an empty telecom.lines layer remains an explicit source gap.",
          "KIUT telecom WMS layers are visual reference overlays only and do not replace analytical vector artifacts."
        ],
        "eligible_for_analysis": true,
        "osm_tags": {
          "power": "line",
          "name": "daw. 110kV Halemba–Wirek I odg. Radoszowy",
          "operator": "Tauron",
          "operator:wikidata": "Q2397198",
          "description": "W 2025 r. ogłoszono przetarg na demontaż odcinka. Zweryfikować jego dalsze istnienie.",
          "voltage": "110000",
          "frequency": "50",
          "circuits": "1",
          "cables": "3",
          "wires": "single"
        }
      },
      "geometry": {
        "type": "LineString",
        "coordinates": [
          [
            18.8976094,
            50.2430286
          ],
          [
            18.8996476,
            50.243440199999995
          ]
        ]
      }
    },
    {
      "type": "Feature",
      "properties": {
        "source": "OpenStreetMap",
        "source_id": "way/935798461",
        "domain": "telecom",
        "asset_type": "lines",
        "confidence": "medium",
        "missing_fields": [],
        "limitations": [
          "OSM telecom infrastructure and communication-network completeness varies significantly by area and operator.",
          "The committed contract fixture demonstrates explicit telecom categories; it is not a complete Rybnik 35 km network, coverage or transmission model.",
          "Generic masts, towers, poles, buildings, ducts and utilities without qualifying communication tags are excluded to prevent false telecom attribution.",
          "No qualified official analytical telecom-network vector feed is enabled; an empty telecom.lines layer remains an explicit source gap.",
          "KIUT telecom WMS layers are visual reference overlays only and do not replace analytical vector artifacts."
        ],
        "eligible_for_analysis": true,
        "osm_tags": {
          "power": "cable",
          "name": "daw. 110kV Halemba–Wirek I odg. Radoszowy",
          "operator": "Tauron",
          "operator:wikidata": "Q2397198",
          "description": "W 2025 r. ogłoszono przetarg na demontaż odcinka. Zweryfikować jego dalsze istnienie.",
          "voltage": "110000",
          "frequency": "50",
          "circuits": "1",
          "cables": "3",
          "location": "underground",
          "layer": "-1"
        }
      },
      "geometry": {
        "type": "LineString",
        "coordinates": [
          [
            18.8996476,
            50.243440199999995
          ],
          [
            18.9044659,
            50.24437829999999
          ]
        ]
      }
    }
  ]
}