{
  "type": "FeatureCollection",
  "metadata": {
    "cache_layout_version": "provider_cache/v1",
    "geojson_contract_version": "provider_geojson/v1",
    "aoi_id": "rybnik_60km",
    "domain": "bridges",
    "layer_id": "bridges.crossings",
    "source": "OpenStreetMap",
    "source_type": "analytical_vector",
    "source_registry_id": "openstreetmap",
    "source_url": "https://overpass-api.de/api/interpreter",
    "source_query": "Bounded Overpass snapshot: explicit bridge, viaduct and level crossing tags within the Rybnik 60 km AOI.",
    "snapshot_at": "2026-08-04T22:00:00Z",
    "pipeline_version": "geo_pipeline/bridges/v1",
    "query_version": "bridges-osm/v1",
    "validation_status_raw": "warning",
    "quality_status": "warning",
    "confidence": "medium",
    "limitations": [
      "OSM bridge and crossing mapping completeness varies by area, operator and transport mode.",
      "The bounded committed snapshot is fixture evidence for bridge structures and level crossings and not an operational criticality rating.",
      "BDOT10k bridge and culvert geometry is retained only as topographic comparison context and cannot establish transport service semantics alone.",
      "No qualified PRG bridge or crossing registry is enabled for this domain pack."
    ],
    "eligible_for_analysis": true,
    "readiness": "usable_with_limitations",
    "contract_version": "provider_geojson/v1",
    "feature_count": 1
  },
  "features": [
    {
      "type": "Feature",
      "properties": {
        "source": "OpenStreetMap",
        "source_id": "node/202001",
        "domain": "bridges",
        "asset_type": "crossings",
        "confidence": "medium",
        "missing_fields": [],
        "limitations": [
          "OSM bridge and crossing mapping completeness varies by area, operator and transport mode.",
          "The bounded committed snapshot is fixture evidence for bridge structures and level crossings and not an operational criticality rating.",
          "BDOT10k bridge and culvert geometry is retained only as topographic comparison context and cannot establish transport service semantics alone.",
          "No qualified PRG bridge or crossing registry is enabled for this domain pack."
        ],
        "eligible_for_analysis": true,
        "osm_tags": {
          "name": "Przejazd kolejowy ul. Mikołowska",
          "ref": "KM 14.2",
          "railway": "level_crossing"
        }
      },
      "geometry": {
        "type": "Point",
        "coordinates": [
          18.547,
          50.091
        ]
      }
    }
  ]
}