{
  "type": "FeatureCollection",
  "metadata": {
    "catalog_version": "prg_administrative_catalog/v1",
    "source_registry_id": "prg_wfs",
    "snapshot_at": "2026-08-01T00:00:00Z",
    "source_crs": "EPSG:4326",
    "limitations": [
      "Bounded offline contract catalogue; it is not a current national PRG mirror.",
      "Geometry is source-labelled administrative selection evidence only."
    ]
  },
  "features": [
    {
      "type": "Feature",
      "properties": {"id": "voivodeship_slaskie", "kind": "voivodeship", "name": "Śląskie", "prg_id": "24"},
      "geometry": {"type": "Polygon", "coordinates": [[[17.7,49.3],[19.4,49.3],[19.4,50.9],[17.7,50.9],[17.7,49.3]]]}
    },
    {
      "type": "Feature",
      "properties": {"id": "county_rybnik_city", "kind": "county", "name": "m. Rybnik", "prg_id": "2473"},
      "geometry": {"type": "Polygon", "coordinates": [[[18.41,50.02],[18.65,50.02],[18.65,50.18],[18.41,50.18],[18.41,50.02]]]}
    },
    {
      "type": "Feature",
      "properties": {"id": "county_rybnicki", "kind": "county", "name": "powiat rybnicki", "prg_id": "2412"},
      "geometry": {"type": "Polygon", "coordinates": [[[18.30,49.96],[18.78,49.96],[18.78,50.28],[18.30,50.28],[18.30,49.96]]]}
    },
    {
      "type": "Feature",
      "properties": {"id": "gmina_rybnik", "kind": "gmina", "name": "Rybnik", "prg_id": "2473011"},
      "geometry": {"type": "Polygon", "coordinates": [[[18.45,50.04],[18.61,50.04],[18.61,50.16],[18.45,50.16],[18.45,50.04]]]}
    },
    {
      "type": "Feature",
      "properties": {"id": "gmina_czerwionka_leszczyny", "kind": "gmina", "name": "Czerwionka-Leszczyny", "prg_id": "2412013"},
      "geometry": {"type": "Polygon", "coordinates": [[[18.49,50.10],[18.72,50.10],[18.72,50.27],[18.49,50.27],[18.49,50.10]]]}
    }
  ]
}
