{
  "type": "FeatureCollection",
  "metadata": {
    "cache_layout_version": "provider_cache/v1",
    "geojson_contract_version": "provider_geojson/v1",
    "aoi_id": "rybnik_35km",
    "domain": "emergency",
    "layer_id": "emergency.official_police",
    "source": "PRG (official unit-area evidence)",
    "source_type": "analytical_vector",
    "source_registry_id": "prg_wfs",
    "source_url": "https://mapy.geoportal.gov.pl/wss/service/PZGIK/PRG/WFS/AdministrativeBoundaries",
    "source_query": "PRG WFS 2.0 GetFeature: K02_Komenda_powiatowa_policji and K07_Komenda_powiatowa_strazy_pozarnej, retained as representative points.",
    "snapshot_at": "2026-08-03T10:26:40Z",
    "pipeline_version": "geo_pipeline/emergency/v1",
    "query_version": "emergency-prg/v1",
    "validation_status_raw": "warning",
    "quality_status": "warning",
    "confidence": "medium",
    "limitations": [
      "PRG police and fire records are official unit-area geometry, not verified facility footprints or operational locations.",
      "The public inspection layer contains one representative point per retained PRG source area; source geometry type and source checksum remain explicit.",
      "PRG contributes police/fire evidence only. Hospitals and ambulance/rescue remain separately published OSM community evidence where no qualified official facility registry is enabled."
    ],
    "eligible_for_analysis": true,
    "readiness": "usable_with_limitations",
    "contract_version": "provider_geojson/v1",
    "feature_count": 1
  },
  "features": [
    {
      "type": "Feature",
      "properties": {
        "source": "PRG (official unit-area evidence)",
        "source_id": "prg_k02/1350186",
        "domain": "emergency",
        "asset_type": "police",
        "confidence": "medium",
        "missing_fields": [],
        "limitations": [
          "PRG police and fire records are official unit-area geometry, not verified facility footprints or operational locations.",
          "The public inspection layer contains one representative point per retained PRG source area; source geometry type and source checksum remain explicit.",
          "PRG contributes police/fire evidence only. Hospitals and ambulance/rescue remain separately published OSM community evidence where no qualified official facility registry is enabled."
        ],
        "eligible_for_analysis": true,
        "source_geometry_type": "MultiSurface",
        "geometry_role": "representative_point_from_official_unit_area",
        "source_response_sha256": "cd3e2eb355292207aa72b71cc5c3e29328fd7d48261c17288e5d87e7264f5266",
        "source_attributes": {
          "name": "Komenda Miejska Policji w Żorach",
          "official_type": "K02_Komenda_powiatowa_policji",
          "iip_identifier": "beaf5604-b69f-40f9-bfd9-cdfd23fb30b4",
          "version_from": "2025-07-17T00:00:00Z",
          "jpt_id": "1350186"
        }
      },
      "geometry": {
        "type": "Point",
        "coordinates": [
          18.680536,
          50.038899
        ]
      }
    }
  ]
}