{
  "type": "FeatureCollection",
  "features": [
    {
      "type": "Feature",
      "geometry": {
        "type": "LineString",
        "coordinates": [
          [18.5300, 50.0850],
          [18.5420, 50.0890],
          [18.5510, 50.0940]
        ]
      },
      "properties": {
        "source_id": "way/701001",
        "element": "way",
        "id": 701001,
        "pipeline": "sewer",
        "substance": "sewerage",
        "name": "Kolektor Ściekowy Rybnik-Południe",
        "operator": "PWiK Rybnik"
      }
    },
    {
      "type": "Feature",
      "geometry": {
        "type": "Point",
        "coordinates": [18.5450, 50.0910]
      },
      "properties": {
        "source_id": "node/801001",
        "element": "node",
        "id": 801001,
        "man_made": "wastewater_plant",
        "name": "Oczyszczalnia Ścieków Rybnik-Orzepowice",
        "operator": "PWiK Sp. z o.o."
      }
    }
  ]
}
