{
  "type": "FeatureCollection",
  "metadata": {
    "cache_layout_version": "provider_cache/v1",
    "geojson_contract_version": "provider_geojson/v1",
    "aoi_id": "rybnik_60km",
    "domain": "gas",
    "layer_id": "gas.inspection_points",
    "source": "OpenStreetMap",
    "source_type": "analytical_vector",
    "source_registry_id": "openstreetmap",
    "source_url": "https://overpass-api.de/api/interpreter",
    "source_query": "Fixture contract evidence for gas-osm/v2: gasometer/gas station, pipeline=gas, or gas-substance pipeline and valve tags.",
    "snapshot_at": "2026-08-06T19:00:00Z",
    "pipeline_version": "geo_pipeline/gas/v2",
    "query_version": "gas-osm/v2",
    "validation_status_raw": "warning",
    "quality_status": "warning",
    "confidence": "medium",
    "limitations": [
      "OSM gas infrastructure and distribution network mapping completeness varies significantly by area.",
      "The committed contract fixture demonstrates normalized gas categories; it is not a complete Rybnik 60 km OSM snapshot or an operational pressure or flow model.",
      "Generic unlabelled pipelines and valves without explicit gas tags are excluded to prevent false gas attribution.",
      "KIUT gas WMS layers are visual reference overlays only and do not replace analytical vector artifacts."
    ],
    "eligible_for_analysis": true,
    "readiness": "usable_with_limitations",
    "contract_version": "provider_geojson/v1",
    "feature_count": 1
  },
  "features": [
    {
      "type": "Feature",
      "properties": {
        "source": "OpenStreetMap",
        "source_id": "way/501001",
        "domain": "gas",
        "asset_type": "pipelines",
        "confidence": "medium",
        "missing_fields": [],
        "limitations": [
          "OSM gas infrastructure and distribution network mapping completeness varies significantly by area.",
          "The committed contract fixture demonstrates normalized gas categories; it is not a complete Rybnik 60 km OSM snapshot or an operational pressure or flow model.",
          "Generic unlabelled pipelines and valves without explicit gas tags are excluded to prevent false gas attribution.",
          "KIUT gas WMS layers are visual reference overlays only and do not replace analytical vector artifacts."
        ],
        "eligible_for_analysis": true,
        "osm_tags": {
          "man_made": "pipeline",
          "name": "Gazociąg Wysokiego Ciśnienia Rybnik",
          "operator": "Polska Spółka Gazownictwa",
          "substance": "gas",
          "pressure": "high"
        },
        "origin_artifact": "gas.pipelines",
        "origin_source_id": "way/501001",
        "source_geometry_type": "LineString"
      },
      "geometry": {
        "type": "Point",
        "coordinates": [
          18.54,
          50.095
        ]
      }
    }
  ]
}