{
  "type": "FeatureCollection",
  "features": [
    {
      "type": "Feature",
      "properties": {
        "element": "node",
        "id": 41001,
        "name": "Fixture GSM mast",
        "man_made": "mast",
        "tower:type": "communication",
        "communication:mobile_phone": "yes"
      },
      "geometry": { "type": "Point", "coordinates": [18.5462, 50.1021] }
    },
    {
      "type": "Feature",
      "properties": {
        "element": "node",
        "id": 41002,
        "name": "Fixture telecom exchange",
        "telecom": "exchange"
      },
      "geometry": { "type": "Point", "coordinates": [18.5562, 50.1121] }
    }
  ]
}
