{
  "type": "FeatureCollection",
  "metadata": {
    "contract_version": "steel_sentinel_geojson/v1",
    "aoi_id": "rybnik_60km",
    "domain": "power",
    "layer_id": "power.lines",
    "source": "OpenStreetMap",
    "source_type": "analytical_vector",
    "snapshot_at": "2026-07-21T00:00:00Z",
    "feature_count": 2,
    "readiness": "ready",
    "confidence": "medium",
    "limitations": [
      "OSM completeness varies by area and asset type.",
      "Passed validation does not prove complete real-world infrastructure coverage."
    ],
    "usable_for_simulation": true
  },
  "features": [
    {
      "type": "Feature",
      "properties": {
        "source": "OpenStreetMap",
        "source_id": "way/32043840",
        "domain": "power",
        "asset_type": "line",
        "confidence": "medium",
        "missing_fields": [],
        "limitations": [
          "OSM completeness varies by area and asset type.",
          "Passed validation does not prove complete real-world infrastructure coverage."
        ],
        "usable_for_simulation": true,
        "osm_tags": {
          "power": "line",
          "ref": "270",
          "operator": "ČEPS",
          "voltage": "220000",
          "source": "bing;uhul:ortofoto"
        }
      },
      "geometry": {
        "type": "LineString",
        "coordinates": [[18.3158644, 49.7033835], [18.3132876, 49.7035034]]
      }
    },
    {
      "type": "Feature",
      "properties": {
        "source": "OpenStreetMap",
        "source_id": "way/32043841",
        "domain": "power",
        "asset_type": "minor_line",
        "confidence": "medium",
        "missing_fields": ["voltage"],
        "limitations": [
          "OSM completeness varies by area and asset type.",
          "Passed validation does not prove complete real-world infrastructure coverage."
        ],
        "usable_for_simulation": true,
        "osm_tags": {
          "power": "minor_line"
        }
      },
      "geometry": {
        "type": "LineString",
        "coordinates": [[18.7040353, 49.6542746], [18.7050353, 49.6552746]]
      }
    }
  ]
}
