{
  "type": "FeatureCollection",
  "metadata": {
    "fixture_version": "osm_public_services_snapshot/v1",
    "source_registry_id": "openstreetmap",
    "source_url": "https://overpass-api.de/api/interpreter",
    "snapshot_at": "2026-08-03T20:30:00Z",
    "query": "Bounded explicit public-service OSM tag snapshot for the Rybnik 60 km AOI; fixture evidence, not a coverage claim.",
    "license": "ODbL-1.0",
    "attribution": "© OpenStreetMap contributors"
  },
  "features": [
    {"type": "Feature", "properties": {"element": "way", "id": "public-townhall-1", "amenity": "townhall", "name": "Urząd Miasta Rybnika", "website": "https://www.rybnik.eu/"}, "geometry": {"type": "Polygon", "coordinates": [[[18.5418, 50.0976], [18.5422, 50.0976], [18.5422, 50.0979], [18.5418, 50.0979], [18.5418, 50.0976]]]}} ,
    {"type": "Feature", "properties": {"element": "node", "id": "public-school-1", "amenity": "school", "name": "Szkoła Podstawowa", "wheelchair": "yes"}, "geometry": {"type": "Point", "coordinates": [18.5552, 50.1047]}},
    {"type": "Feature", "properties": {"element": "node", "id": "public-post-1", "amenity": "post_office", "name": "Poczta Polska", "opening_hours": "Mo-Fr 08:00-18:00"}, "geometry": {"type": "Point", "coordinates": [18.5359, 50.0983]}},
    {"type": "Feature", "properties": {"element": "way", "id": "public-library-1", "amenity": "library", "name": "Biblioteka Publiczna"}, "geometry": {"type": "Polygon", "coordinates": [[[18.5299, 50.1001], [18.5303, 50.1001], [18.5303, 50.1004], [18.5299, 50.1004], [18.5299, 50.1001]]]}}
  ]
}
