{
  "type": "FeatureCollection",
  "metadata": {
    "cache_layout_version": "provider_cache/v1",
    "geojson_contract_version": "provider_geojson/v1",
    "aoi_id": "rybnik_60km",
    "domain": "emergency",
    "layer_id": "emergency.hospital",
    "source": "OpenStreetMap",
    "source_type": "analytical_vector",
    "source_registry_id": "openstreetmap",
    "source_url": "https://overpass-api.de/api/interpreter",
    "source_query": "Overpass bounded snapshot: explicit amenity=hospital|fire_station|police|ambulance_station, healthcare=hospital and emergency=ambulance_station|mountain_rescue|lifeguard_base within the Rybnik 60 km AOI.",
    "snapshot_at": "2026-08-03T10:14:06Z",
    "pipeline_version": "geo_pipeline/emergency/v1",
    "query_version": "emergency-osm/v1",
    "validation_status_raw": "warning",
    "quality_status": "warning",
    "confidence": "medium",
    "limitations": [
      "OSM emergency and healthcare mapping completeness varies by area and facility type.",
      "The bounded committed snapshot is not a complete emergency-service registry or an operational-status statement.",
      "No qualified official hospital or ambulance/rescue facility registry is enabled for this provider AOI."
    ],
    "eligible_for_analysis": true,
    "readiness": "usable_with_limitations",
    "contract_version": "provider_geojson/v1",
    "feature_count": 1
  },
  "features": [
    {
      "type": "Feature",
      "properties": {
        "source": "OpenStreetMap",
        "source_id": "way/39829907",
        "domain": "emergency",
        "asset_type": "hospital",
        "confidence": "medium",
        "missing_fields": [],
        "limitations": [
          "OSM emergency and healthcare mapping completeness varies by area and facility type.",
          "The bounded committed snapshot is not a complete emergency-service registry or an operational-status statement.",
          "No qualified official hospital or ambulance/rescue facility registry is enabled for this provider AOI."
        ],
        "eligible_for_analysis": true,
        "osm_tags": {
          "name": "Szpital Powiatowy w Wodzisławiu Śląskim Oddział w Rydułtowach",
          "operator": "Szpital Powiatowy w Wodzisławiu Śląskim",
          "website": "http://www.zozwodzislaw.pl/",
          "amenity": "hospital",
          "healthcare": "hospital",
          "wheelchair": "yes"
        }
      },
      "geometry": {
        "type": "Polygon",
        "coordinates": [
          [
            [
              18.4251179,
              50.0599791
            ],
            [
              18.425188,
              50.0599788
            ],
            [
              18.4252342,
              50.0599673
            ],
            [
              18.4253293,
              50.0599338
            ],
            [
              18.4254515,
              50.0598807
            ],
            [
              18.4266016,
              50.0593225
            ],
            [
              18.427343,
              50.0589217
            ],
            [
              18.4271652,
              50.0587962
            ],
            [
              18.4261064,
              50.0580526
            ],
            [
              18.4253586,
              50.0575534
            ],
            [
              18.4248096,
              50.0578411
            ],
            [
              18.4240194,
              50.0582553
            ],
            [
              18.4238103,
              50.0583697
            ],
            [
              18.4232217,
              50.058698
            ],
            [
              18.4229149,
              50.0588783
            ],
            [
              18.4229266,
              50.0589546
            ],
            [
              18.4231042,
              50.0590257
            ],
            [
              18.4232284,
              50.0590814
            ],
            [
              18.4232708,
              50.0591004
            ],
            [
              18.4239238,
              50.0594492
            ],
            [
              18.4241756,
              50.0595856
            ],
            [
              18.4248203,
              50.0599259
            ],
            [
              18.4248717,
              50.0599557
            ],
            [
              18.4249195,
              50.0599658
            ],
            [
              18.4249862,
              50.0599763
            ],
            [
              18.4250338,
              50.0599797
            ],
            [
              18.4251179,
              50.0599791
            ]
          ]
        ]
      }
    }
  ]
}