{
  "type": "FeatureCollection",
  "metadata": {
    "cache_layout_version": "provider_cache/v1",
    "geojson_contract_version": "provider_geojson/v1",
    "aoi_id": "rybnik_60km",
    "domain": "emergency",
    "layer_id": "emergency.inspection_points",
    "source": "OpenStreetMap",
    "source_type": "analytical_vector",
    "source_registry_id": "openstreetmap",
    "source_url": "https://overpass-api.de/api/interpreter",
    "source_query": "Overpass bounded snapshot: explicit amenity=hospital|fire_station|police|ambulance_station, healthcare=hospital and emergency=ambulance_station|mountain_rescue|lifeguard_base within the Rybnik 60 km AOI.",
    "snapshot_at": "2026-08-03T10:14:06Z",
    "pipeline_version": "geo_pipeline/emergency/v1",
    "query_version": "emergency-osm/v1",
    "validation_status_raw": "warning",
    "quality_status": "warning",
    "confidence": "medium",
    "limitations": [
      "OSM emergency and healthcare mapping completeness varies by area and facility type.",
      "The bounded committed snapshot is not a complete emergency-service registry or an operational-status statement.",
      "No qualified official hospital or ambulance/rescue facility registry is enabled for this provider AOI."
    ],
    "eligible_for_analysis": true,
    "readiness": "usable_with_limitations",
    "contract_version": "provider_geojson/v1",
    "feature_count": 4
  },
  "features": [
    {
      "type": "Feature",
      "properties": {
        "source": "OpenStreetMap",
        "source_id": "way/39829907",
        "domain": "emergency",
        "asset_type": "hospital",
        "confidence": "medium",
        "missing_fields": [],
        "limitations": [
          "OSM emergency and healthcare mapping completeness varies by area and facility type.",
          "The bounded committed snapshot is not a complete emergency-service registry or an operational-status statement.",
          "No qualified official hospital or ambulance/rescue facility registry is enabled for this provider AOI."
        ],
        "eligible_for_analysis": true,
        "osm_tags": {
          "name": "Szpital Powiatowy w Wodzisławiu Śląskim Oddział w Rydułtowach",
          "operator": "Szpital Powiatowy w Wodzisławiu Śląskim",
          "website": "http://www.zozwodzislaw.pl/",
          "amenity": "hospital",
          "healthcare": "hospital",
          "wheelchair": "yes"
        },
        "origin_artifact": "emergency.hospital",
        "origin_source_id": "way/39829907",
        "source_geometry_type": "Polygon"
      },
      "geometry": {
        "type": "Point",
        "coordinates": [
          18.425116719165533,
          50.058747100000005
        ]
      }
    },
    {
      "type": "Feature",
      "properties": {
        "source": "OpenStreetMap",
        "source_id": "node/11735247641",
        "domain": "emergency",
        "asset_type": "fire_service",
        "confidence": "medium",
        "missing_fields": [],
        "limitations": [
          "OSM emergency and healthcare mapping completeness varies by area and facility type.",
          "The bounded committed snapshot is not a complete emergency-service registry or an operational-status statement.",
          "No qualified official hospital or ambulance/rescue facility registry is enabled for this provider AOI."
        ],
        "eligible_for_analysis": true,
        "osm_tags": {
          "name": "Jednostka Ratowniczo-Gaśnicza Państwowej Straży Pożarnej w Rybniku",
          "amenity": "fire_station"
        },
        "origin_artifact": "emergency.fire_service",
        "origin_source_id": "node/11735247641",
        "source_geometry_type": "Point"
      },
      "geometry": {
        "type": "Point",
        "coordinates": [
          18.534302,
          50.0964707
        ]
      }
    },
    {
      "type": "Feature",
      "properties": {
        "source": "OpenStreetMap",
        "source_id": "way/105746602",
        "domain": "emergency",
        "asset_type": "police",
        "confidence": "medium",
        "missing_fields": [],
        "limitations": [
          "OSM emergency and healthcare mapping completeness varies by area and facility type.",
          "The bounded committed snapshot is not a complete emergency-service registry or an operational-status statement.",
          "No qualified official hospital or ambulance/rescue facility registry is enabled for this provider AOI."
        ],
        "eligible_for_analysis": true,
        "osm_tags": {
          "name": "Straż Miejska w Rybniku",
          "amenity": "police"
        },
        "origin_artifact": "emergency.police",
        "origin_source_id": "way/105746602",
        "source_geometry_type": "Polygon"
      },
      "geometry": {
        "type": "Point",
        "coordinates": [
          18.53117314575341,
          50.08990245
        ]
      }
    },
    {
      "type": "Feature",
      "properties": {
        "source": "OpenStreetMap",
        "source_id": "node/10782842679",
        "domain": "emergency",
        "asset_type": "ambulance_rescue",
        "confidence": "medium",
        "missing_fields": [],
        "limitations": [
          "OSM emergency and healthcare mapping completeness varies by area and facility type.",
          "The bounded committed snapshot is not a complete emergency-service registry or an operational-status statement.",
          "No qualified official hospital or ambulance/rescue facility registry is enabled for this provider AOI."
        ],
        "eligible_for_analysis": true,
        "osm_tags": {
          "name": "Pogotowie Ratunkowe Świerklany",
          "emergency": "ambulance_station"
        },
        "origin_artifact": "emergency.ambulance_rescue",
        "origin_source_id": "node/10782842679",
        "source_geometry_type": "Point"
      },
      "geometry": {
        "type": "Point",
        "coordinates": [
          18.5880007,
          50.0269063
        ]
      }
    }
  ]
}