{
  "type": "FeatureCollection",
  "metadata": {
    "cache_layout_version": "provider_cache/v1",
    "geojson_contract_version": "provider_geojson/v1",
    "aoi_id": "rybnik_35km",
    "domain": "sewer",
    "layer_id": "sewer.pipelines",
    "source": "OpenStreetMap",
    "source_type": "analytical_vector",
    "source_registry_id": "openstreetmap",
    "source_url": "https://overpass-api.de/api/interpreter",
    "source_query": "Fixture contract evidence for sewer-osm/v2: wastewater_plant, septic_tank, pipeline=sewer, and explicit sewer/wastewater tags.",
    "snapshot_at": "2026-08-07T15:30:00Z",
    "pipeline_version": "geo_pipeline/sewer/v2",
    "query_version": "sewer-osm/v2",
    "validation_status_raw": "warning",
    "quality_status": "warning",
    "confidence": "medium",
    "limitations": [
      "OSM sewer infrastructure and wastewater collection network mapping completeness varies significantly by area.",
      "The committed contract fixture demonstrates normalized sewer categories; it is not a complete Rybnik 35 km OSM snapshot or an operational hydraulic flow model.",
      "Generic unlabelled pipelines, water pipelines, and gas pipelines are excluded to prevent false sewer attribution.",
      "KIUT sewer WMS layers are visual reference overlays only and do not replace analytical vector artifacts."
    ],
    "eligible_for_analysis": true,
    "readiness": "usable_with_limitations",
    "contract_version": "provider_geojson/v1",
    "feature_count": 3
  },
  "features": [
    {
      "type": "Feature",
      "properties": {
        "source": "OpenStreetMap",
        "source_id": "way/1314229279",
        "domain": "sewer",
        "asset_type": "pipelines",
        "confidence": "medium",
        "missing_fields": [],
        "limitations": [
          "OSM sewer infrastructure and wastewater collection network mapping completeness varies significantly by area.",
          "The committed contract fixture demonstrates normalized sewer categories; it is not a complete Rybnik 35 km OSM snapshot or an operational hydraulic flow model.",
          "Generic unlabelled pipelines, water pipelines, and gas pipelines are excluded to prevent false sewer attribution.",
          "KIUT sewer WMS layers are visual reference overlays only and do not replace analytical vector artifacts."
        ],
        "eligible_for_analysis": true,
        "osm_tags": {
          "man_made": "pipeline",
          "location": "underground",
          "layer": "-1",
          "substance": "wastewater",
          "diameter": "500"
        }
      },
      "geometry": {
        "type": "LineString",
        "coordinates": [
          [
            18.9280039,
            50.2299237
          ],
          [
            18.9280414,
            50.2296286
          ],
          [
            18.9279736,
            50.22931450000001
          ]
        ]
      }
    },
    {
      "type": "Feature",
      "properties": {
        "source": "OpenStreetMap",
        "source_id": "way/1509849872",
        "domain": "sewer",
        "asset_type": "pipelines",
        "confidence": "medium",
        "missing_fields": [],
        "limitations": [
          "OSM sewer infrastructure and wastewater collection network mapping completeness varies significantly by area.",
          "The committed contract fixture demonstrates normalized sewer categories; it is not a complete Rybnik 35 km OSM snapshot or an operational hydraulic flow model.",
          "Generic unlabelled pipelines, water pipelines, and gas pipelines are excluded to prevent false sewer attribution.",
          "KIUT sewer WMS layers are visual reference overlays only and do not replace analytical vector artifacts."
        ],
        "eligible_for_analysis": true,
        "osm_tags": {
          "man_made": "pipeline",
          "substance": "wastewater"
        }
      },
      "geometry": {
        "type": "LineString",
        "coordinates": [
          [
            18.521871100000002,
            50.0702269
          ],
          [
            18.5218941,
            50.0702235
          ]
        ]
      }
    },
    {
      "type": "Feature",
      "properties": {
        "source": "OpenStreetMap",
        "source_id": "way/1509849873",
        "domain": "sewer",
        "asset_type": "pipelines",
        "confidence": "medium",
        "missing_fields": [],
        "limitations": [
          "OSM sewer infrastructure and wastewater collection network mapping completeness varies significantly by area.",
          "The committed contract fixture demonstrates normalized sewer categories; it is not a complete Rybnik 35 km OSM snapshot or an operational hydraulic flow model.",
          "Generic unlabelled pipelines, water pipelines, and gas pipelines are excluded to prevent false sewer attribution.",
          "KIUT sewer WMS layers are visual reference overlays only and do not replace analytical vector artifacts."
        ],
        "eligible_for_analysis": true,
        "osm_tags": {
          "man_made": "pipeline",
          "location": "underground",
          "layer": "-1",
          "substance": "wastewater"
        }
      },
      "geometry": {
        "type": "LineString",
        "coordinates": [
          [
            18.5218668,
            50.07022750000001
          ],
          [
            18.521871100000002,
            50.0702269
          ]
        ]
      }
    }
  ]
}