{
  "type": "FeatureCollection",
  "metadata": {
    "fixture_version": "osm_emergency_snapshot/v1",
    "source_registry_id": "openstreetmap",
    "source_url": "https://overpass-api.de/api/interpreter",
    "snapshot_at": "2026-08-03T10:14:06Z",
    "query": "Bounded Overpass emergency/healthcare query for the Rybnik 60 km AOI; this committed fixture is a source-labelled contract sample, not a coverage claim.",
    "license": "ODbL-1.0",
    "attribution": "© OpenStreetMap contributors"
  },
  "features": [
    {
      "type": "Feature",
      "properties": {
        "element": "way",
        "id": "39829907",
        "amenity": "hospital",
        "healthcare": "hospital",
        "name": "Szpital Powiatowy w Wodzisławiu Śląskim Oddział w Rydułtowach",
        "operator": "Szpital Powiatowy w Wodzisławiu Śląskim",
        "website": "http://www.zozwodzislaw.pl/",
        "wheelchair": "yes"
      },
      "geometry": {"type": "Polygon", "coordinates": [[[18.4251179, 50.0599791], [18.425188, 50.0599788], [18.4252342, 50.0599673], [18.4253293, 50.0599338], [18.4254515, 50.0598807], [18.4266016, 50.0593225], [18.427343, 50.0589217], [18.4271652, 50.0587962], [18.4261064, 50.0580526], [18.4253586, 50.0575534], [18.4248096, 50.0578411], [18.4240194, 50.0582553], [18.4238103, 50.0583697], [18.4232217, 50.058698], [18.4229149, 50.0588783], [18.4229266, 50.0589546], [18.4231042, 50.0590257], [18.4232284, 50.0590814], [18.4232708, 50.0591004], [18.4239238, 50.0594492], [18.4241756, 50.0595856], [18.4248203, 50.0599259], [18.4248717, 50.0599557], [18.4249195, 50.0599658], [18.4249862, 50.0599763], [18.4250338, 50.0599797], [18.4251179, 50.0599791]]]}
    },
    {
      "type": "Feature",
      "properties": {
        "element": "node",
        "id": "11735247641",
        "amenity": "fire_station",
        "name": "Jednostka Ratowniczo-Gaśnicza Państwowej Straży Pożarnej w Rybniku"
      },
      "geometry": {"type": "Point", "coordinates": [18.534302, 50.0964707]}
    },
    {
      "type": "Feature",
      "properties": {
        "element": "way",
        "id": "105746602",
        "amenity": "police",
        "building": "yes",
        "name": "Straż Miejska w Rybniku"
      },
      "geometry": {"type": "Polygon", "coordinates": [[[18.5309999, 50.0899807], [18.530966, 50.0898739], [18.531145, 50.0898505], [18.5311423, 50.0898418], [18.5311943, 50.089835], [18.5311971, 50.0898438], [18.5313464, 50.0898243], [18.5313803, 50.089931], [18.5309999, 50.0899807]]]}
    },
    {
      "type": "Feature",
      "properties": {
        "element": "node",
        "id": "10782842679",
        "emergency": "ambulance_station",
        "name": "Pogotowie Ratunkowe Świerklany"
      },
      "geometry": {"type": "Point", "coordinates": [18.5880007, 50.0269063]}
    }
  ]
}
