{
  "type": "FeatureCollection",
  "metadata": {
    "source_registry_id": "prg_wfs",
    "source_url": "https://mapy.geoportal.gov.pl/wss/service/PZGIK/PRG/WFS/AdministrativeBoundaries",
    "snapshot_at": "2026-08-03T10:26:40Z",
    "query_version": "emergency-prg/v1",
    "derivation": "Representative points derived offline from the retained PRG MultiSurface source records in EPSG:2180; the compact fixture preserves source IDs, type, geometry role, and source-response checksums."
  },
  "features": [
    {
      "type": "Feature",
      "properties": {
        "element": "prg_k02",
        "id": "1350186",
        "provider_category": "police",
        "name": "Komenda Miejska Policji w Żorach",
        "official_type": "K02_Komenda_powiatowa_policji",
        "iip_identifier": "beaf5604-b69f-40f9-bfd9-cdfd23fb30b4",
        "jpt_id": "1350186",
        "version_from": "2025-07-17",
        "source_geometry_type": "MultiSurface",
        "geometry_role": "representative_point_from_official_unit_area",
        "source_response_sha256": "cd3e2eb355292207aa72b71cc5c3e29328fd7d48261c17288e5d87e7264f5266"
      },
      "geometry": { "type": "Point", "coordinates": [18.680536, 50.038899] }
    },
    {
      "type": "Feature",
      "properties": {
        "element": "prg_k07",
        "id": "1350193",
        "provider_category": "fire_service",
        "name": "Komenda Miejska Państwowej Straży Pożarnej w Żorach",
        "official_type": "K07_Komenda_powiatowa_strazy_pozarnej",
        "iip_identifier": "9f03ee59-4b7d-41ad-ae23-f91a460206bd",
        "jpt_id": "1350193",
        "version_from": "2018-10-23T12:55:09+02:00",
        "source_geometry_type": "MultiSurface",
        "geometry_role": "representative_point_from_official_unit_area",
        "source_response_sha256": "08c2a1e72621fde12430ec8f094df437a023940520b700fb40d9f4197505f74e"
      },
      "geometry": { "type": "Point", "coordinates": [18.680535, 50.038899] }
    }
  ]
}
