{
  "type": "FeatureCollection",
  "metadata": {
    "cache_layout_version": "provider_cache/v1",
    "geojson_contract_version": "provider_geojson/v1",
    "aoi_id": "rybnik_35km",
    "domain": "industrial",
    "layer_id": "industrial.facilities",
    "source": "OpenStreetMap",
    "source_type": "analytical_vector",
    "source_registry_id": "openstreetmap",
    "source_url": "https://overpass-api.de/api/interpreter",
    "source_query": "Fixture contract evidence for industrial-osm/v1",
    "snapshot_at": "2026-08-20T02:09:58.561540Z",
    "pipeline_version": "geo_pipeline/industrial/v1",
    "query_version": "industrial-osm/v2",
    "validation_status_raw": "warning",
    "quality_status": "warning",
    "confidence": "medium",
    "limitations": [
      "OSM industrial facilities might lack complete boundary semantics. Fixture is bounded to Rybnik 35km."
    ],
    "eligible_for_analysis": true,
    "feature_count": 2,
    "readiness": "usable_with_limitations",
    "contract_version": "provider_geojson/v1"
  },
  "features": [
    {
      "type": "Feature",
      "properties": {
        "source": "OpenStreetMap",
        "source_id": "way/169393048",
        "domain": "industrial",
        "asset_type": "unknown",
        "confidence": "medium",
        "missing_fields": [],
        "limitations": [
          "OSM industrial facilities might lack complete boundary semantics. Fixture is bounded to Rybnik 35km."
        ],
        "eligible_for_analysis": true,
        "osm_tags": {
          "source": "OpenStreetMap",
          "building": "industrial"
        }
      },
      "geometry": {
        "type": "Polygon",
        "coordinates": [
          [
            [
              18.4697811,
              50.275926
            ],
            [
              18.4707842,
              50.2750685
            ],
            [
              18.4708204,
              50.2750376
            ],
            [
              18.4705468,
              50.27490289999999
            ],
            [
              18.4694937,
              50.27578789999998
            ],
            [
              18.4697811,
              50.275926
            ]
          ]
        ]
      }
    },
    {
      "type": "Feature",
      "properties": {
        "source": "OpenStreetMap",
        "source_id": "way/169393059",
        "domain": "industrial",
        "asset_type": "unknown",
        "confidence": "medium",
        "missing_fields": [],
        "limitations": [
          "OSM industrial facilities might lack complete boundary semantics. Fixture is bounded to Rybnik 35km."
        ],
        "eligible_for_analysis": true,
        "osm_tags": {
          "source": "OpenStreetMap",
          "building": "industrial"
        }
      },
      "geometry": {
        "type": "Polygon",
        "coordinates": [
          [
            [
              18.470012,
              50.27493809999999
            ],
            [
              18.4694687,
              50.2746728
            ],
            [
              18.468537600000005,
              50.2754587
            ],
            [
              18.468007,
              50.27590349999999
            ],
            [
              18.468277100000005,
              50.2760412
            ],
            [
              18.4683814,
              50.27595869999999
            ],
            [
              18.468646900000003,
              50.27608349999999
            ],
            [
              18.470012,
              50.27493809999999
            ]
          ]
        ]
      }
    }
  ]
}