{
  "type": "FeatureCollection",
  "metadata": {
    "cache_layout_version": "provider_cache/v1",
    "geojson_contract_version": "provider_geojson/v1",
    "aoi_id": "rybnik_35km",
    "domain": "industrial",
    "layer_id": "industrial.building_context",
    "source": "OpenStreetMap",
    "source_type": "analytical_vector",
    "source_registry_id": "openstreetmap",
    "source_url": "https://overpass-api.de/api/interpreter",
    "source_query": "Fixture contract evidence for industrial-osm/v1",
    "snapshot_at": "2026-08-20T02:09:58.561544Z",
    "pipeline_version": "geo_pipeline/industrial/v1",
    "query_version": "industrial-osm/v2",
    "validation_status_raw": "warning",
    "quality_status": "warning",
    "confidence": "medium",
    "limitations": [
      "OSM industrial facilities might lack complete boundary semantics. Fixture is bounded to Rybnik 35km."
    ],
    "eligible_for_analysis": true,
    "feature_count": 0,
    "readiness": "usable_with_limitations",
    "contract_version": "provider_geojson/v1"
  },
  "features": []
}