{
  "type": "FeatureCollection",
  "metadata": {
    "cache_layout_version": "provider_cache/v1",
    "geojson_contract_version": "provider_geojson/v1",
    "aoi_id": "rybnik_35km",
    "domain": "industrial",
    "layer_id": "industrial.military_context",
    "source": "OpenStreetMap",
    "source_type": "analytical_vector",
    "source_registry_id": "openstreetmap",
    "source_url": "https://overpass-api.de/api/interpreter",
    "source_query": "Fixture contract evidence for industrial-osm/v1",
    "snapshot_at": "2026-08-20T02:09:58.561546Z",
    "pipeline_version": "geo_pipeline/industrial/v1",
    "query_version": "industrial-osm/v2",
    "validation_status_raw": "warning",
    "quality_status": "warning",
    "confidence": "medium",
    "limitations": [
      "OSM industrial facilities might lack complete boundary semantics. Fixture is bounded to Rybnik 35km."
    ],
    "eligible_for_analysis": true,
    "feature_count": 18,
    "readiness": "usable_with_limitations",
    "contract_version": "provider_geojson/v1"
  },
  "features": [
    {
      "type": "Feature",
      "properties": {
        "source": "OpenStreetMap",
        "source_id": "node/6893344388",
        "domain": "industrial",
        "asset_type": "unknown",
        "confidence": "medium",
        "missing_fields": [],
        "limitations": [
          "OSM industrial facilities might lack complete boundary semantics. Fixture is bounded to Rybnik 35km."
        ],
        "eligible_for_analysis": true,
        "osm_tags": {
          "name": "Strzelnica wojskowa ?, na mapach od 1970 do 2004",
          "source": "OpenStreetMap"
        }
      },
      "geometry": {
        "type": "Point",
        "coordinates": [
          18.860707,
          50.2506827
        ]
      }
    },
    {
      "type": "Feature",
      "properties": {
        "source": "OpenStreetMap",
        "source_id": "node/10178775490",
        "domain": "industrial",
        "asset_type": "unknown",
        "confidence": "medium",
        "missing_fields": [],
        "limitations": [
          "OSM industrial facilities might lack complete boundary semantics. Fixture is bounded to Rybnik 35km."
        ],
        "eligible_for_analysis": true,
        "osm_tags": {
          "source": "OpenStreetMap"
        }
      },
      "geometry": {
        "type": "Point",
        "coordinates": [
          18.9572444,
          50.2037672
        ]
      }
    },
    {
      "type": "Feature",
      "properties": {
        "source": "OpenStreetMap",
        "source_id": "way/33648608",
        "domain": "industrial",
        "asset_type": "unknown",
        "confidence": "medium",
        "missing_fields": [],
        "limitations": [
          "OSM industrial facilities might lack complete boundary semantics. Fixture is bounded to Rybnik 35km."
        ],
        "eligible_for_analysis": true,
        "osm_tags": {
          "name": "Poligon Garnizonu Gliwice",
          "source": "OpenStreetMap"
        }
      },
      "geometry": {
        "type": "Polygon",
        "coordinates": [
          [
            [
              18.629149,
              50.26907119999999
            ],
            [
              18.6290494,
              50.26571200000001
            ],
            [
              18.6291143,
              50.2654478
            ],
            [
              18.6290744,
              50.26504189999999
            ],
            [
              18.6289299,
              50.26362779999999
            ],
            [
              18.628789,
              50.262830699999995
            ],
            [
              18.6285936,
              50.2627623
            ],
            [
              18.628165,
              50.26279449999999
            ],
            [
              18.6274194,
              50.2628668
            ],
            [
              18.626282300000003,
              50.26298630000001
            ],
            [
              18.6254888,
              50.2630748
            ],
            [
              18.6246405,
              50.26316080000001
            ],
            [
              18.6237171,
              50.263247
            ],
            [
              18.6229349,
              50.26332419999999
            ],
            [
              18.621752,
              50.263458500000006
            ],
            [
              18.6200509,
              50.263635
            ],
            [
              18.616801,
              50.263951600000006
            ],
            [
              18.6150578,
              50.26416009999999
            ],
            [
              18.6137498,
              50.264273599999996
            ],
            [
              18.6118144,
              50.2644732
            ],
            [
              18.6114483,
              50.2645111
            ],
            [
              18.6110386,
              50.26455609999999
            ],
            [
              18.6107583,
              50.2645859
            ],
            [
              18.6105452,
              50.2646086
            ],
            [
              18.6099522,
              50.26469049999999
            ],
            [
              18.6096918,
              50.26472379999999
            ],
            [
              18.6097348,
              50.2649064
            ],
            [
              18.6098104,
              50.264953
            ],
            [
              18.6098562,
              50.26498839999999
            ],
            [
              18.6098723,
              50.265039900000005
            ],
            [
              18.6098743,
              50.26518269999999
            ],
            [
              18.609971100000003,
              50.26567599999999
            ],
            [
              18.6100011,
              50.265823
            ],
            [
              18.6100379,
              50.26600349999998
            ],
            [
              18.6101065,
              50.26637509999999
            ],
            [
              18.6101883,
              50.2667602
            ],
            [
              18.610229600000004,
              50.26715579999998
            ],
            [
              18.6102546,
              50.26748020000001
            ],
            [
              18.6102772,
              50.2682348
            ],
            [
              18.6101699,
              50.269284
            ],
            [
              18.6099659,
              50.270331600000006
            ],
            [
              18.6100059,
              50.271079300000004
            ],
            [
              18.6099342,
              50.2718549
            ],
            [
              18.6097872,
              50.27326680000001
            ],
            [
              18.6097841,
              50.27364390000001
            ],
            [
              18.6098093,
              50.27411659999999
            ],
            [
              18.609796700000004,
              50.27430050000001
            ],
            [
              18.6099295,
              50.274408
            ],
            [
              18.609921,
              50.27454899999999
            ],
            [
              18.6099012,
              50.2749823
            ],
            [
              18.6098893,
              50.27643179999999
            ],
            [
              18.6099031,
              50.2774755
            ],
            [
              18.6100884,
              50.27796639999999
            ],
            [
              18.6103437,
              50.27798009999999
            ],
            [
              18.610553800000005,
              50.2779197
            ],
            [
              18.610922500000004,
              50.27795369999999
            ],
            [
              18.6114316,
              50.27800069999999
            ],
            [
              18.6119489,
              50.2782052
            ],
            [
              18.6121011,
              50.27826539999999
            ],
            [
              18.6137147,
              50.27854109999999
            ],
            [
              18.6174406,
              50.2790561
            ],
            [
              18.6180755,
              50.279150499999986
            ],
            [
              18.6184458,
              50.279204299999996
            ],
            [
              18.619125,
              50.27923710000001
            ],
            [
              18.6198664,
              50.27935029999999
            ],
            [
              18.6209198,
              50.279475
            ],
            [
              18.621767,
              50.2795882
            ],
            [
              18.6219331,
              50.2796109
            ],
            [
              18.6225804,
              50.2797483
            ],
            [
              18.6232026,
              50.27984729999999
            ],
            [
              18.6259006,
              50.28027949999999
            ],
            [
              18.6269107,
              50.28043089999999
            ],
            [
              18.6270752,
              50.28047139999999
            ],
            [
              18.6273766,
              50.280558600000006
            ],
            [
              18.6279774,
              50.2807322
            ],
            [
              18.6290436,
              50.281038599999995
            ],
            [
              18.6296582,
              50.2812152
            ],
            [
              18.6297879,
              50.281002999999984
            ],
            [
              18.6298096,
              50.28096699999999
            ],
            [
              18.6295404,
              50.28000519999999
            ],
            [
              18.6292442,
              50.279082899999985
            ],
            [
              18.6291733,
              50.2788519
            ],
            [
              18.6290851,
              50.27837259999999
            ],
            [
              18.629038,
              50.278221299999984
            ],
            [
              18.6288914,
              50.278078
            ],
            [
              18.6290002,
              50.2780589
            ],
            [
              18.6289926,
              50.277950600000004
            ],
            [
              18.629076700000002,
              50.277845799999994
            ],
            [
              18.6290315,
              50.27666519999999
            ],
            [
              18.6290213,
              50.276059399999994
            ],
            [
              18.629005,
              50.275767699999996
            ],
            [
              18.6289972,
              50.275461799999995
            ],
            [
              18.628989800000003,
              50.275216
            ],
            [
              18.6290413,
              50.27397549999999
            ],
            [
              18.6290438,
              50.27352929999999
            ],
            [
              18.6290698,
              50.27294319999999
            ],
            [
              18.6289937,
              50.27282379999998
            ],
            [
              18.6289876,
              50.27262919999999
            ],
            [
              18.6290237,
              50.2725318
            ],
            [
              18.6290837,
              50.2724498
            ],
            [
              18.62909,
              50.27233849999999
            ],
            [
              18.6291257,
              50.271350299999995
            ],
            [
              18.6291635,
              50.2703404
            ],
            [
              18.629149,
              50.26907119999999
            ]
          ]
        ]
      }
    },
    {
      "type": "Feature",
      "properties": {
        "source": "OpenStreetMap",
        "source_id": "way/89724145",
        "domain": "industrial",
        "asset_type": "unknown",
        "confidence": "medium",
        "missing_fields": [],
        "limitations": [
          "OSM industrial facilities might lack complete boundary semantics. Fixture is bounded to Rybnik 35km."
        ],
        "eligible_for_analysis": true,
        "osm_tags": {
          "name": "Jednostka Wojskowa AGAT im. gen. dyw. Stefana Roweckiego \"GROTA\", 131 Batalion Lekkiej Piechoty",
          "website": "https://agat.wp.mil.pl/pl/index.html",
          "source": "OpenStreetMap",
          "contact:phone": "+48 26 111 13 03",
          "contact:email": "3940.sekretariat@wp.mil.pl"
        }
      },
      "geometry": {
        "type": "Polygon",
        "coordinates": [
          [
            [
              18.6363926,
              50.301888999999996
            ],
            [
              18.6364771,
              50.30185319999998
            ],
            [
              18.6372787,
              50.30151609999999
            ],
            [
              18.6390676,
              50.3007682
            ],
            [
              18.6391578,
              50.3007317
            ],
            [
              18.640016600000003,
              50.30037029999999
            ],
            [
              18.6423432,
              50.2993912
            ],
            [
              18.6428201,
              50.2991876
            ],
            [
              18.6420082,
              50.2983896
            ],
            [
              18.6414866,
              50.298613200000005
            ],
            [
              18.6413503,
              50.29848220000001
            ],
            [
              18.6413211,
              50.2985006
            ],
            [
              18.6405668,
              50.298818499999996
            ],
            [
              18.6397398,
              50.29789370000001
            ],
            [
              18.6394449,
              50.29802259999999
            ],
            [
              18.6388408,
              50.29744780000001
            ],
            [
              18.6389957,
              50.2973805
            ],
            [
              18.638885,
              50.2972756
            ],
            [
              18.6389078,
              50.29726060000001
            ],
            [
              18.6389353,
              50.2972306
            ],
            [
              18.6386341,
              50.2969408
            ],
            [
              18.6407824,
              50.296006899999995
            ],
            [
              18.6411717,
              50.29581379999999
            ],
            [
              18.6407472,
              50.295507499999985
            ],
            [
              18.6402747,
              50.29513789999999
            ],
            [
              18.6392645,
              50.29561629999999
            ],
            [
              18.6334229,
              50.29808
            ],
            [
              18.633994100000002,
              50.29862489999999
            ],
            [
              18.6307093,
              50.3000022
            ],
            [
              18.6297686,
              50.3000379
            ],
            [
              18.6298346,
              50.3002891
            ],
            [
              18.6303247,
              50.30048629999999
            ],
            [
              18.633474500000002,
              50.3014438
            ],
            [
              18.636229,
              50.3019607
            ],
            [
              18.6363926,
              50.301888999999996
            ]
          ]
        ]
      }
    },
    {
      "type": "Feature",
      "properties": {
        "source": "OpenStreetMap",
        "source_id": "way/157252381",
        "domain": "industrial",
        "asset_type": "unknown",
        "confidence": "medium",
        "missing_fields": [],
        "limitations": [
          "OSM industrial facilities might lack complete boundary semantics. Fixture is bounded to Rybnik 35km."
        ],
        "eligible_for_analysis": true,
        "osm_tags": {
          "source": "OpenStreetMap"
        }
      },
      "geometry": {
        "type": "Polygon",
        "coordinates": [
          [
            [
              18.6634987,
              50.37123089999999
            ],
            [
              18.6627332,
              50.37120699999999
            ],
            [
              18.6626378,
              50.37120399999999
            ],
            [
              18.6625457,
              50.3712011
            ],
            [
              18.6610188,
              50.3711534
            ],
            [
              18.6608403,
              50.371616
            ],
            [
              18.6607861,
              50.371756500000004
            ],
            [
              18.659987800000003,
              50.372686599999994
            ],
            [
              18.660477,
              50.3729897
            ],
            [
              18.661504300000004,
              50.37335519999999
            ],
            [
              18.661714,
              50.373551299999995
            ],
            [
              18.6615952,
              50.37379199999999
            ],
            [
              18.6613226,
              50.374050499999996
            ],
            [
              18.6611339,
              50.37413519999999
            ],
            [
              18.6608893,
              50.374331299999994
            ],
            [
              18.6607845,
              50.37449619999999
            ],
            [
              18.6607496,
              50.374647800000005
            ],
            [
              18.6607566,
              50.3748573
            ],
            [
              18.6608614,
              50.3750311
            ],
            [
              18.661078,
              50.3751425
            ],
            [
              18.6613226,
              50.3751336
            ],
            [
              18.6616441,
              50.3749732
            ],
            [
              18.6618258,
              50.3750133
            ],
            [
              18.6618398,
              50.3751782
            ],
            [
              18.6616511,
              50.3754501
            ],
            [
              18.6619446,
              50.375615
            ],
            [
              18.6615672,
              50.37572639999999
            ],
            [
              18.6611549,
              50.375771
            ],
            [
              18.6607775,
              50.375766500000005
            ],
            [
              18.6607705,
              50.3760116
            ],
            [
              18.660616800000003,
              50.37631029999999
            ],
            [
              18.6606098,
              50.376617800000005
            ],
            [
              18.6605469,
              50.376880799999995
            ],
            [
              18.6609732,
              50.3770858
            ],
            [
              18.6614414,
              50.3771705
            ],
            [
              18.6618817,
              50.377273
            ],
            [
              18.6619027,
              50.37746909999999
            ],
            [
              18.6620906,
              50.377781899999995
            ],
            [
              18.6623613,
              50.3777458
            ],
            [
              18.6633941,
              50.377607999999995
            ],
            [
              18.666198,
              50.37676249999999
            ],
            [
              18.6662177,
              50.3764847
            ],
            [
              18.666248900000003,
              50.37604470000001
            ],
            [
              18.6662815,
              50.37558500000001
            ],
            [
              18.6664364,
              50.37342189999999
            ],
            [
              18.666442400000005,
              50.3733387
            ],
            [
              18.666552300000003,
              50.37214899999999
            ],
            [
              18.666556,
              50.372109299999984
            ],
            [
              18.6634231,
              50.372313199999994
            ],
            [
              18.6636151,
              50.37123539999999
            ],
            [
              18.6634987,
              50.37123089999999
            ]
          ]
        ]
      }
    },
    {
      "type": "Feature",
      "properties": {
        "source": "OpenStreetMap",
        "source_id": "way/308818338",
        "domain": "industrial",
        "asset_type": "unknown",
        "confidence": "medium",
        "missing_fields": [],
        "limitations": [
          "OSM industrial facilities might lack complete boundary semantics. Fixture is bounded to Rybnik 35km."
        ],
        "eligible_for_analysis": true,
        "osm_tags": {
          "name": "Obszar Warowny \"Śląsk\"m",
          "source": "OpenStreetMap",
          "building": "bunker"
        }
      },
      "geometry": {
        "type": "Polygon",
        "coordinates": [
          [
            [
              18.8642688,
              50.1740981
            ],
            [
              18.8642591,
              50.17411379999999
            ],
            [
              18.8642564,
              50.1741267
            ],
            [
              18.8642582,
              50.17414779999999
            ],
            [
              18.8642717,
              50.1741701
            ],
            [
              18.8643295,
              50.1741798
            ],
            [
              18.864391300000005,
              50.174169199999994
            ],
            [
              18.864401,
              50.17414609999999
            ],
            [
              18.86443,
              50.17411510000001
            ],
            [
              18.8644297,
              50.17409829999999
            ],
            [
              18.8644205,
              50.1740821
            ],
            [
              18.8643203,
              50.1740691
            ],
            [
              18.864297,
              50.174076799999995
            ],
            [
              18.8642688,
              50.1740981
            ]
          ]
        ]
      }
    },
    {
      "type": "Feature",
      "properties": {
        "source": "OpenStreetMap",
        "source_id": "way/327444283",
        "domain": "industrial",
        "asset_type": "unknown",
        "confidence": "medium",
        "missing_fields": [],
        "limitations": [
          "OSM industrial facilities might lack complete boundary semantics. Fixture is bounded to Rybnik 35km."
        ],
        "eligible_for_analysis": true,
        "osm_tags": {
          "source": "OpenStreetMap"
        }
      },
      "geometry": {
        "type": "Polygon",
        "coordinates": [
          [
            [
              18.5430252,
              50.09008080000001
            ],
            [
              18.5431387,
              50.090000799999984
            ],
            [
              18.5431851,
              50.08996629999999
            ],
            [
              18.5432586,
              50.089916300000006
            ],
            [
              18.5433176,
              50.0898734
            ],
            [
              18.5430536,
              50.089727399999994
            ],
            [
              18.543039,
              50.08971940000001
            ],
            [
              18.5429257,
              50.0896553
            ],
            [
              18.5428504,
              50.0896128
            ],
            [
              18.5427076,
              50.089530800000006
            ],
            [
              18.542622200000004,
              50.089572100000005
            ],
            [
              18.5425655,
              50.08960979999999
            ],
            [
              18.5425263,
              50.08964269999999
            ],
            [
              18.5428271,
              50.08996290000001
            ],
            [
              18.5430252,
              50.09008080000001
            ]
          ]
        ]
      }
    },
    {
      "type": "Feature",
      "properties": {
        "source": "OpenStreetMap",
        "source_id": "way/345706001",
        "domain": "industrial",
        "asset_type": "unknown",
        "confidence": "medium",
        "missing_fields": [],
        "limitations": [
          "OSM industrial facilities might lack complete boundary semantics. Fixture is bounded to Rybnik 35km."
        ],
        "eligible_for_analysis": true,
        "osm_tags": {
          "name": "Poligon testowy Bumaru Łabędy",
          "source": "OpenStreetMap",
          "access": "military"
        }
      },
      "geometry": {
        "type": "Polygon",
        "coordinates": [
          [
            [
              18.6993098,
              50.3373704
            ],
            [
              18.6976689,
              50.33507889999999
            ],
            [
              18.6976551,
              50.33506109999999
            ],
            [
              18.6976346,
              50.3350349
            ],
            [
              18.6976225,
              50.3350152
            ],
            [
              18.6971895,
              50.33437179999999
            ],
            [
              18.6966887,
              50.3337301
            ],
            [
              18.6966343,
              50.333740899999995
            ],
            [
              18.6960697,
              50.33387269999999
            ],
            [
              18.6954644,
              50.33408719999999
            ],
            [
              18.6925191,
              50.3307262
            ],
            [
              18.692465,
              50.32984749999999
            ],
            [
              18.6924642,
              50.32981999999999
            ],
            [
              18.6935643,
              50.32922570000001
            ],
            [
              18.6933861,
              50.3289834
            ],
            [
              18.6915602,
              50.32650029999999
            ],
            [
              18.6911403,
              50.325929300000006
            ],
            [
              18.6813185,
              50.326190999999994
            ],
            [
              18.676277200000005,
              50.326325399999995
            ],
            [
              18.6709034,
              50.32650439999999
            ],
            [
              18.6670035,
              50.326567499999996
            ],
            [
              18.66335,
              50.326707500000005
            ],
            [
              18.6609986,
              50.326808199999995
            ],
            [
              18.6556442,
              50.3360765
            ],
            [
              18.654334400000003,
              50.3383526
            ],
            [
              18.6518183,
              50.3427968
            ],
            [
              18.6533985,
              50.3431886
            ],
            [
              18.6532249,
              50.34342830000001
            ],
            [
              18.6530208,
              50.343787799999994
            ],
            [
              18.6526556,
              50.34450459999999
            ],
            [
              18.6516382,
              50.3443225
            ],
            [
              18.6512388,
              50.344662299999996
            ],
            [
              18.6508066,
              50.34464330000001
            ],
            [
              18.6495051,
              50.346888899999996
            ],
            [
              18.6477821,
              50.349879299999984
            ],
            [
              18.6448885,
              50.355049099999995
            ],
            [
              18.6490697,
              50.3550774
            ],
            [
              18.6606844,
              50.35429059999999
            ],
            [
              18.6623427,
              50.3541783
            ],
            [
              18.6628523,
              50.3525641
            ],
            [
              18.664626,
              50.352376500000005
            ],
            [
              18.6658511,
              50.35112010000001
            ],
            [
              18.6671371,
              50.35108859999999
            ],
            [
              18.6682858,
              50.350418000000005
            ],
            [
              18.6694723,
              50.35058120000001
            ],
            [
              18.6705267,
              50.3503156
            ],
            [
              18.6716582,
              50.350439299999984
            ],
            [
              18.6768434,
              50.349767299999996
            ],
            [
              18.6770252,
              50.34953979999999
            ],
            [
              18.6772467,
              50.3494749
            ],
            [
              18.6775748,
              50.3494103
            ],
            [
              18.6779147,
              50.3494113
            ],
            [
              18.6804771,
              50.3495965
            ],
            [
              18.6840435,
              50.351094599999996
            ],
            [
              18.6841125,
              50.3506519
            ],
            [
              18.6857345,
              50.3506248
            ],
            [
              18.6869137,
              50.3503642
            ],
            [
              18.6933902,
              50.3485018
            ],
            [
              18.7012786,
              50.3496491
            ],
            [
              18.706345600000002,
              50.3478117
            ],
            [
              18.7027096,
              50.342547599999996
            ],
            [
              18.702438,
              50.34218889999999
            ],
            [
              18.7029103,
              50.341937400000006
            ],
            [
              18.7030329,
              50.340840099999994
            ],
            [
              18.7025484,
              50.340546100000005
            ],
            [
              18.7019708,
              50.3403
            ],
            [
              18.700769,
              50.3398289
            ],
            [
              18.6993098,
              50.3373704
            ]
          ]
        ]
      }
    },
    {
      "type": "Feature",
      "properties": {
        "source": "OpenStreetMap",
        "source_id": "way/347317256",
        "domain": "industrial",
        "asset_type": "unknown",
        "confidence": "medium",
        "missing_fields": [],
        "limitations": [
          "OSM industrial facilities might lack complete boundary semantics. Fixture is bounded to Rybnik 35km."
        ],
        "eligible_for_analysis": true,
        "osm_tags": {
          "name": "Strzelnica Bractwa Kurkowego",
          "source": "OpenStreetMap",
          "surface": "ground"
        }
      },
      "geometry": {
        "type": "Polygon",
        "coordinates": [
          [
            [
              18.4726995,
              50.115890000000014
            ],
            [
              18.472641,
              50.11589
            ],
            [
              18.472286200000003,
              50.1158796
            ],
            [
              18.4721541,
              50.1158704
            ],
            [
              18.4721661,
              50.11593500000001
            ],
            [
              18.4722935,
              50.1167627
            ],
            [
              18.4726918,
              50.1167568
            ],
            [
              18.4726778,
              50.11630410000001
            ],
            [
              18.4726833,
              50.116135
            ],
            [
              18.472678,
              50.1159658
            ],
            [
              18.4727218,
              50.1159497
            ],
            [
              18.4727082,
              50.11591789999999
            ],
            [
              18.4726995,
              50.115890000000014
            ]
          ]
        ]
      }
    },
    {
      "type": "Feature",
      "properties": {
        "source": "OpenStreetMap",
        "source_id": "way/372689601",
        "domain": "industrial",
        "asset_type": "unknown",
        "confidence": "medium",
        "missing_fields": [],
        "limitations": [
          "OSM industrial facilities might lack complete boundary semantics. Fixture is bounded to Rybnik 35km."
        ],
        "eligible_for_analysis": true,
        "osm_tags": {
          "source": "OpenStreetMap"
        }
      },
      "geometry": {
        "type": "Polygon",
        "coordinates": [
          [
            [
              18.0906409,
              50.04396399999999
            ],
            [
              18.0907552,
              50.043888599999995
            ],
            [
              18.0902061,
              50.0434983
            ],
            [
              18.0897488,
              50.0431949
            ],
            [
              18.0896947,
              50.043166
            ],
            [
              18.089624000000004,
              50.0431785
            ],
            [
              18.0895156,
              50.0432471
            ],
            [
              18.089472,
              50.0433109
            ],
            [
              18.089478,
              50.043634499999996
            ],
            [
              18.089478,
              50.043924399999995
            ],
            [
              18.0894839,
              50.04396499999999
            ],
            [
              18.0906409,
              50.04396399999999
            ]
          ]
        ]
      }
    },
    {
      "type": "Feature",
      "properties": {
        "source": "OpenStreetMap",
        "source_id": "way/572589639",
        "domain": "industrial",
        "asset_type": "unknown",
        "confidence": "medium",
        "missing_fields": [],
        "limitations": [
          "OSM industrial facilities might lack complete boundary semantics. Fixture is bounded to Rybnik 35km."
        ],
        "eligible_for_analysis": true,
        "osm_tags": {
          "name": "Schron przeciwlotniczy",
          "source": "OpenStreetMap",
          "building": "bunker"
        }
      },
      "geometry": {
        "type": "Polygon",
        "coordinates": [
          [
            [
              18.2577034,
              50.3045995
            ],
            [
              18.2578039,
              50.30463989999999
            ],
            [
              18.257823,
              50.304620500000006
            ],
            [
              18.2579649,
              50.3046776
            ],
            [
              18.2579538,
              50.30468880000001
            ],
            [
              18.2580206,
              50.3047157
            ],
            [
              18.2580313,
              50.30470479999999
            ],
            [
              18.2581748,
              50.3047626
            ],
            [
              18.2581593,
              50.304778299999995
            ],
            [
              18.2582344,
              50.30480860000001
            ],
            [
              18.2582473,
              50.304795399999996
            ],
            [
              18.2584035,
              50.3048582
            ],
            [
              18.258394600000003,
              50.30486729999999
            ],
            [
              18.2584624,
              50.3048945
            ],
            [
              18.2584725,
              50.304884200000004
            ],
            [
              18.2586043,
              50.304937200000005
            ],
            [
              18.2585833,
              50.304958500000005
            ],
            [
              18.2586765,
              50.3049959
            ],
            [
              18.2587581,
              50.30491299999999
            ],
            [
              18.2577811,
              50.30452059999999
            ],
            [
              18.2577034,
              50.3045995
            ]
          ]
        ]
      }
    },
    {
      "type": "Feature",
      "properties": {
        "source": "OpenStreetMap",
        "source_id": "way/572589642",
        "domain": "industrial",
        "asset_type": "unknown",
        "confidence": "medium",
        "missing_fields": [],
        "limitations": [
          "OSM industrial facilities might lack complete boundary semantics. Fixture is bounded to Rybnik 35km."
        ],
        "eligible_for_analysis": true,
        "osm_tags": {
          "name": "Schron przeciwlotniczy",
          "source": "OpenStreetMap",
          "building": "bunker"
        }
      },
      "geometry": {
        "type": "Polygon",
        "coordinates": [
          [
            [
              18.2495216,
              50.309091699999996
            ],
            [
              18.2496221,
              50.309132099999985
            ],
            [
              18.249641100000005,
              50.3091128
            ],
            [
              18.249783,
              50.30916979999999
            ],
            [
              18.249772,
              50.309180999999995
            ],
            [
              18.2498388,
              50.309207900000004
            ],
            [
              18.2498495,
              50.30919699999999
            ],
            [
              18.249993,
              50.309254799999984
            ],
            [
              18.2499774,
              50.3092705
            ],
            [
              18.2500526,
              50.309300799999995
            ],
            [
              18.2500655,
              50.309287600000005
            ],
            [
              18.2502216,
              50.30935039999999
            ],
            [
              18.2502127,
              50.3093594
            ],
            [
              18.2502805,
              50.30938669999999
            ],
            [
              18.2502907,
              50.30937639999999
            ],
            [
              18.2504224,
              50.30942939999999
            ],
            [
              18.250401500000002,
              50.30945069999999
            ],
            [
              18.2504947,
              50.3094881
            ],
            [
              18.2505762,
              50.30940520000001
            ],
            [
              18.249599300000003,
              50.3090128
            ],
            [
              18.2495216,
              50.309091699999996
            ]
          ]
        ]
      }
    },
    {
      "type": "Feature",
      "properties": {
        "source": "OpenStreetMap",
        "source_id": "way/572589644",
        "domain": "industrial",
        "asset_type": "unknown",
        "confidence": "medium",
        "missing_fields": [],
        "limitations": [
          "OSM industrial facilities might lack complete boundary semantics. Fixture is bounded to Rybnik 35km."
        ],
        "eligible_for_analysis": true,
        "osm_tags": {
          "name": "Schron przeciwlotniczy",
          "source": "OpenStreetMap",
          "building": "bunker"
        }
      },
      "geometry": {
        "type": "Polygon",
        "coordinates": [
          [
            [
              18.2473951,
              50.31057779999999
            ],
            [
              18.2472947,
              50.31053719999999
            ],
            [
              18.2472756,
              50.310556500000004
            ],
            [
              18.247134,
              50.310499199999995
            ],
            [
              18.2471451,
              50.310488
            ],
            [
              18.2470784,
              50.31046099999998
            ],
            [
              18.2470677,
              50.3104718
            ],
            [
              18.2469245,
              50.31041379999999
            ],
            [
              18.2469401,
              50.31039809999999
            ],
            [
              18.2468651,
              50.3103677
            ],
            [
              18.2468521,
              50.3103808
            ],
            [
              18.246696300000004,
              50.310317700000006
            ],
            [
              18.2467052,
              50.31030870000001
            ],
            [
              18.2466376,
              50.3102813
            ],
            [
              18.2466274,
              50.31029159999999
            ],
            [
              18.2464959,
              50.31023839999999
            ],
            [
              18.2465169,
              50.310217099999996
            ],
            [
              18.2464239,
              50.31017949999998
            ],
            [
              18.2463419,
              50.31026219999999
            ],
            [
              18.247317,
              50.31065649999999
            ],
            [
              18.2473951,
              50.31057779999999
            ]
          ]
        ]
      }
    },
    {
      "type": "Feature",
      "properties": {
        "source": "OpenStreetMap",
        "source_id": "way/572589645",
        "domain": "industrial",
        "asset_type": "unknown",
        "confidence": "medium",
        "missing_fields": [],
        "limitations": [
          "OSM industrial facilities might lack complete boundary semantics. Fixture is bounded to Rybnik 35km."
        ],
        "eligible_for_analysis": true,
        "osm_tags": {
          "name": "Schron przeciwlotniczy",
          "source": "OpenStreetMap",
          "building": "bunker"
        }
      },
      "geometry": {
        "type": "Polygon",
        "coordinates": [
          [
            [
              18.2665639,
              50.30179699999999
            ],
            [
              18.2666878,
              50.301681899999984
            ],
            [
              18.2667001,
              50.3016873
            ],
            [
              18.2667779,
              50.30161509999999
            ],
            [
              18.2667648,
              50.3016094
            ],
            [
              18.2669085,
              50.301476
            ],
            [
              18.2668015,
              50.301429000000006
            ],
            [
              18.2667542,
              50.30147290000001
            ],
            [
              18.2667691,
              50.3014795
            ],
            [
              18.26652,
              50.3017108
            ],
            [
              18.266508,
              50.30170549999999
            ],
            [
              18.2664591,
              50.30175100000001
            ],
            [
              18.2665639,
              50.30179699999999
            ]
          ]
        ]
      }
    },
    {
      "type": "Feature",
      "properties": {
        "source": "OpenStreetMap",
        "source_id": "way/680735567",
        "domain": "industrial",
        "asset_type": "unknown",
        "confidence": "medium",
        "missing_fields": [],
        "limitations": [
          "OSM industrial facilities might lack complete boundary semantics. Fixture is bounded to Rybnik 35km."
        ],
        "eligible_for_analysis": true,
        "osm_tags": {
          "source": "OpenStreetMap"
        }
      },
      "geometry": {
        "type": "Polygon",
        "coordinates": [
          [
            [
              18.6064436,
              50.24765819999999
            ],
            [
              18.6060999,
              50.2477615
            ],
            [
              18.6062075,
              50.24790800000001
            ],
            [
              18.6065513,
              50.2478047
            ],
            [
              18.6064436,
              50.24765819999999
            ]
          ]
        ]
      }
    },
    {
      "type": "Feature",
      "properties": {
        "source": "OpenStreetMap",
        "source_id": "way/942696353",
        "domain": "industrial",
        "asset_type": "unknown",
        "confidence": "medium",
        "missing_fields": [],
        "limitations": [
          "OSM industrial facilities might lack complete boundary semantics. Fixture is bounded to Rybnik 35km."
        ],
        "eligible_for_analysis": true,
        "osm_tags": {
          "name": "Towarzystwo Sportowe Temida",
          "website": "https://tstemida-zabrze.pl/",
          "source": "OpenStreetMap"
        }
      },
      "geometry": {
        "type": "Polygon",
        "coordinates": [
          [
            [
              18.8055208,
              50.29263929999998
            ],
            [
              18.8056744,
              50.29290929999999
            ],
            [
              18.806973,
              50.29257719999999
            ],
            [
              18.8068205,
              50.2922441
            ],
            [
              18.806791600000004,
              50.292191299999985
            ],
            [
              18.8055208,
              50.29263929999998
            ]
          ]
        ]
      }
    },
    {
      "type": "Feature",
      "properties": {
        "source": "OpenStreetMap",
        "source_id": "way/1021602743",
        "domain": "industrial",
        "asset_type": "unknown",
        "confidence": "medium",
        "missing_fields": [],
        "limitations": [
          "OSM industrial facilities might lack complete boundary semantics. Fixture is bounded to Rybnik 35km."
        ],
        "eligible_for_analysis": true,
        "osm_tags": {
          "name": "Strzelnica Sportowa Pszów",
          "source": "OpenStreetMap"
        }
      },
      "geometry": {
        "type": "Polygon",
        "coordinates": [
          [
            [
              18.3991398,
              50.0481737
            ],
            [
              18.3976764,
              50.048756999999995
            ],
            [
              18.3978408,
              50.048941799999994
            ],
            [
              18.3993659,
              50.048427100000005
            ],
            [
              18.3991398,
              50.0481737
            ]
          ]
        ]
      }
    },
    {
      "type": "Feature",
      "properties": {
        "source": "OpenStreetMap",
        "source_id": "way/1072455595",
        "domain": "industrial",
        "asset_type": "unknown",
        "confidence": "medium",
        "missing_fields": [],
        "limitations": [
          "OSM industrial facilities might lack complete boundary semantics. Fixture is bounded to Rybnik 35km."
        ],
        "eligible_for_analysis": true,
        "osm_tags": {
          "name": "Strzelnica SW",
          "source": "OpenStreetMap"
        }
      },
      "geometry": {
        "type": "Polygon",
        "coordinates": [
          [
            [
              18.6364963,
              49.980935999999986
            ],
            [
              18.6346965,
              49.98061289999999
            ],
            [
              18.6345121,
              49.98082009999999
            ],
            [
              18.6363261,
              49.981281
            ],
            [
              18.6364963,
              49.980935999999986
            ]
          ]
        ]
      }
    }
  ]
}