{
  "type": "FeatureCollection",
  "metadata": {
    "fixture_version": "osm_transport_snapshot/v1",
    "source_registry_id": "openstreetmap",
    "source_url": "https://overpass-api.de/api/interpreter",
    "snapshot_at": "2026-08-03T21:00:00Z",
    "query": "Bounded explicit transport OSM tag snapshot for the Rybnik 60 km AOI; fixture evidence, not a coverage claim.",
    "license": "ODbL-1.0",
    "attribution": "© OpenStreetMap contributors"
  },
  "features": [
    {
      "type": "Feature",
      "properties": {
        "element": "way",
        "id": "transport-road-1",
        "highway": "primary",
        "ref": "DK78",
        "name": "ulica Rybnicka",
        "maxspeed": "50"
      },
      "geometry": {
        "type": "LineString",
        "coordinates": [
          [18.5300, 50.0950],
          [18.5400, 50.0980],
          [18.5500, 50.1020]
        ]
      }
    },
    {
      "type": "Feature",
      "properties": {
        "element": "way",
        "id": "transport-road-2",
        "highway": "secondary",
        "ref": "DW925",
        "name": "ulica Mikołowska",
        "maxspeed": "50"
      },
      "geometry": {
        "type": "LineString",
        "coordinates": [
          [18.5450, 50.0960],
          [18.5550, 50.0990]
        ]
      }
    },
    {
      "type": "Feature",
      "properties": {
        "element": "way",
        "id": "transport-road-3",
        "highway": "residential",
        "name": "ulica Kościelna",
        "maxspeed": "30"
      },
      "geometry": {
        "type": "LineString",
        "coordinates": [
          [18.5410, 50.0965],
          [18.5430, 50.0975]
        ]
      }
    },
    {
      "type": "Feature",
      "properties": {
        "element": "way",
        "id": "transport-road-4",
        "highway": "service",
        "name": "Droga dojazdowa dworcowa",
        "access": "yes"
      },
      "geometry": {
        "type": "LineString",
        "coordinates": [
          [18.5412, 50.0966],
          [18.5418, 50.0969]
        ]
      }
    },
    {
      "type": "Feature",
      "properties": {
        "element": "way",
        "id": "transport-rail-1",
        "railway": "rail",
        "ref": "140",
        "name": "Linia kolejowa 140 Katowice - Nędza",
        "voltage": "3000"
      },
      "geometry": {
        "type": "LineString",
        "coordinates": [
          [18.5250, 50.0900],
          [18.5380, 50.0960],
          [18.5520, 50.1030]
        ]
      }
    },
    {
      "type": "Feature",
      "properties": {
        "element": "node",
        "id": "transport-station-1",
        "railway": "station",
        "name": "Dworzec Kolejowy Rybnik",
        "wheelchair": "yes"
      },
      "geometry": {
        "type": "Point",
        "coordinates": [18.5415, 50.0968]
      }
    },
    {
      "type": "Feature",
      "properties": {
        "element": "node",
        "id": "transport-aviation-1",
        "aeroway": "helipad",
        "name": "Lądowisko Szpitalne Rybnik",
        "operator": "WSS nr 3 w Rybniku"
      },
      "geometry": {
        "type": "Point",
        "coordinates": [18.5600, 50.1100]
      }
    }
  ]
}
